{
"type": "FeatureCollection",
"name": "bezirke_hist",
"crs": { "type": "name", "properties": { "name": "urn:ogc:def:crs:EPSG::2056" } },
"features": [
{ "type": "Feature", "properties": { "GEBIET_HIST_C": 10229.0, "GEBIET_C": 111.0, "GEBIET_N": "Dietikon", "ART_C": 1.0, "ART_N": "Bezirk", "PARENT_HIST_C": null, "PARENT_ART_C": 1.0, "VON": "1990-01-01", "BIS": "2999-12-31" }, "geometry": { "type": "Polygon", "coordinates": [ [ [ 2676879.381499998271465, 1248287.798600003123283 ], [ 2676224.693899999838322, 1248202.542400002479553 ], [ 2676466.033300001174212, 1247974.156599998474121 ], [ 2677130.3909, 1247908.7139 ], [ 2677796.003499999642372, 1247508.690099999308586 ], [ 2677911.613333475310355, 1247524.333650405751541 ], [ 2677471.512800000142306, 1246776.185099996626377 ], [ 2677871.410100001841784, 1246459.7452 ], [ 2677952.9901, 1246157.881899997591972 ], [ 2678798.459399998188019, 1245957.4949000030756 ], [ 2678931.385000001639128, 1245766.691399998962879 ], [ 2679208.535999998450279, 1245176.427299998700619 ], [ 2678666.099399998784065, 1245395.832500003278255 ], [ 2678289.014499999582767, 1245278.283399999141693 ], [ 2677856.89469999819994, 1244913.021899998188019 ], [ 2677873.421999998390675, 1244659.8882 ], [ 2677016.1206, 1244847.2408 ], [ 2676819.30009999871254, 1244261.535899996757507 ], [ 2677134.461500000208616, 1243992.735299997031689 ], [ 2677236.415500000119209, 1243320.50450000166893 ], [ 2676835.221700001507998, 1243159.071500003105029 ], [ 2676751.022399999201298, 1243150.7826 ], [ 2676435.367899999022484, 1242672.079300001263618 ], [ 2675302.045200001448393, 1242083.400600001215935 ], [ 2674896.08669999986887, 1242305.0533 ], [ 2674108.560199998319149, 1242001.25500000291504 ], [ 2673610.716699998825788, 1242263.985200002789497 ], [ 2673926.666000001132488, 1243008.876500003039837 ], [ 2673896.09910000115633, 1243378.156900003552437 ], [ 2673204.476599998772144, 1243864.72070000320673 ], [ 2672937.183899998664856, 1244416.289700001711026 ], [ 2673195.250399999320507, 1245408.907899997895584 ], [ 2672993.874000001698732, 1246366.332099996507168 ], [ 2673236.83219999819994, 1246652.981499999761581 ], [ 2673144.377399999648333, 1247049.497000001370907 ], [ 2672652.7648, 1247186.992600001394749 ], [ 2672576.044799998402596, 1247549.09179999679327 ], [ 2672217.937600001692772, 1248256.812700003385544 ], [ 2672201.6886, 1249254.476400002837181 ], [ 2672305.013799998909235, 1249663.132700003683567 ], [ 2671966.421699999831617, 1249883.093400001525879 ], [ 2671256.345899999141693, 1249825.8507999998983 ], [ 2671054.579799998551607, 1250294.0986 ], [ 2670036.868599999696016, 1250191.583400003612041 ], [ 2669989.857999999076128, 1250598.072300001978874 ], [ 2670767.146600001025945, 1250864.13740000128746 ], [ 2671002.8412000015378, 1250599.906099997693673 ], [ 2671402.332100000232458, 1251030.321000002324581 ], [ 2671139.602899998426437, 1251359.503899998962879 ], [ 2671956.594999998807907, 1252778.884000003105029 ], [ 2671600.739999998360872, 1253450.045299999415874 ], [ 2670720.356999999843538, 1253654.847900003194809 ], [ 2670798.471999999135733, 1254093.3746 ], [ 2671312.9901, 1254219.770900003612041 ], [ 2672331.837000001221895, 1254288.400700002908707 ], [ 2672792.419499999843538, 1254461.4045 ], [ 2673729.852699998766184, 1254211.1598 ], [ 2673890.595899999141693, 1254172.412 ], [ 2674472.47690000012517, 1253925.952200002968311 ], [ 2675889.162999998778105, 1253538.040700003504753 ], [ 2676336.2195999994874, 1253303.54 ], [ 2676541.964999999850988, 1252761.835500001907349 ], [ 2677259.4342, 1252507.699799999594688 ], [ 2678346.247499998658895, 1252668.000900000100955 ], [ 2677950.3273, 1252381.151600003242493 ], [ 2677686.631, 1251901.060400001704693 ], [ 2678043.541299998760223, 1251599.159999996423721 ], [ 2678386.258099999278784, 1251754.388999998569489 ], [ 2678466.021401705686003, 1250858.859313175547868 ], [ 2677678.776, 1250751.227300003170967 ], [ 2677493.706799998879433, 1250224.871899999678135 ], [ 2678125.710400000214577, 1249978.313500002026558 ], [ 2677197.775199998170137, 1249080.298799999058247 ], [ 2676879.381499998271465, 1248287.798600003123283 ] ] ] } },
{ "type": "Feature", "properties": { "GEBIET_HIST_C": 10053.0, "GEBIET_C": 101.0, "GEBIET_N": "Affoltern", "ART_C": 1.0, "ART_N": "Bezirk", "PARENT_HIST_C": null, "PARENT_ART_C": 1.0, "VON": "1960-01-01", "BIS": "2999-12-31" }, "geometry": { "type": "Polygon", "coordinates": [ [ [ 2681180.188200000207871, 1236077.540799997514114 ], [ 2681379.135499998927116, 1236351.772200003266335 ], [ 2681721.052099999040365, 1235621.130400002002716 ], [ 2682172.671300001442432, 1235754.613399997353554 ], [ 2682733.394999999552965, 1235615.364 ], [ 2683013.030600000172853, 1235030.957599997520447 ], [ 2683575.867499999701977, 1234258.619800001382828 ], [ 2683956.58219999819994, 1233575.448700003093109 ], [ 2684694.906700000166893, 1233022.275499999523163 ], [ 2685177.707600001245737, 1231944.129600003361702 ], [ 2685592.931400001049042, 1231338.7742000001017 ], [ 2686131.256700001657009, 1231081.814499996602535 ], [ 2686443.514400001615286, 1230696.561700001358986 ], [ 2686237.924600001424551, 1230372.350900001823902 ], [ 2685478.240600001066923, 1230345.968699999153614 ], [ 2684398.621199999004602, 1230678.933899998897687 ], [ 2683678.488299999386072, 1230712.545400001108646 ], [ 2683356.276599999517202, 1230818.2553 ], [ 2682807.969500001519918, 1230280.776 ], [ 2681349.305000000167638, 1230385.6404 ], [ 2681331.75290000019595, 1229952.4551 ], [ 2680542.821400001645088, 1229539.676700003445148 ], [ 2679582.656899999827147, 1229407.077699996298179 ], [ 2678892.214499998837709, 1229150.435900002717972 ], [ 2677897.837600000202656, 1229770.457500003278255 ], [ 2677478.19990000128746, 1229692.9408999979496 ], [ 2677113.157200001180172, 1230236.393700003623962 ], [ 2676447.028900001198053, 1230399.8574 ], [ 2676345.260000001639128, 1230762.3768 ], [ 2675924.526700001209974, 1230960.3451 ], [ 2675505.2443, 1230786.505500003695488 ], [ 2675025.7135, 1230910.121200002729893 ], [ 2674455.680100001394749, 1230731.804499998688698 ], [ 2674185.1708, 1231095.185999996960163 ], [ 2674037.337900001555681, 1232701.7289 ], [ 2673844.690699998289347, 1232986.158399999141693 ], [ 2673691.454999998211861, 1233391.529600002104416 ], [ 2672987.044399999082088, 1234197.829099998110905 ], [ 2673102.9032, 1234765.211400002241135 ], [ 2672799.380399998277426, 1235333.827600002288818 ], [ 2672860.644999999552965, 1235697.2769 ], [ 2672931.362300001084805, 1236074.449699997901917 ], [ 2672295.149399999529123, 1236959.77929999679327 ], [ 2672053.788199998438358, 1237832.093199997907504 ], [ 2672515.704700000118464, 1237889.228699997067451 ], [ 2672990.647100001573563, 1238322.9912 ], [ 2673826.298700001090765, 1238537.168499998748302 ], [ 2674343.343400001525879, 1239008.923299998044968 ], [ 2674910.107999999076128, 1239334.779399998486042 ], [ 2675114.79839999973774, 1240547.4582 ], [ 2675810.595400001853704, 1241034.3783999979496 ], [ 2676393.142200000118464, 1241878.370399996638298 ], [ 2676339.992400001734495, 1242169.324100002646446 ], [ 2676751.022399999201298, 1243150.7826 ], [ 2676835.221700001507998, 1243159.071500003105029 ], [ 2677236.415500000119209, 1243320.50450000166893 ], [ 2677134.461500000208616, 1243992.735299997031689 ], [ 2676819.30009999871254, 1244261.535899996757507 ], [ 2677016.1206, 1244847.2408 ], [ 2677873.421999998390675, 1244659.8882 ], [ 2677856.89469999819994, 1244913.021899998188019 ], [ 2678289.014499999582767, 1245278.283399999141693 ], [ 2678666.099399998784065, 1245395.832500003278255 ], [ 2679208.535999998450279, 1245176.427299998700619 ], [ 2680063.667899999767542, 1244294.300700001418591 ], [ 2679985.2947, 1244043.768799998098984 ], [ 2680368.76969999819994, 1243377.26129999756813 ], [ 2680282.798899999819696, 1241865.962999999523163 ], [ 2680480.664500001817942, 1241583.6523 ], [ 2680718.034000001847744, 1240696.153499998152256 ], [ 2681021.55009999871254, 1240305.88000000291504 ], [ 2680799.935499999672174, 1239934.382700003683567 ], [ 2680944.318599998950958, 1239610.729500003159046 ], [ 2680774.717500001192093, 1239271.278399996459484 ], [ 2680996.311700001824647, 1237922.349200002849102 ], [ 2680806.127999998629093, 1237763.417999997502193 ], [ 2681132.228799998760223, 1237352.0493 ], [ 2681035.365200001746416, 1236647.344300002092496 ], [ 2680605.371899999678135, 1236344.26860000193119 ], [ 2681180.188200000207871, 1236077.540799997514114 ] ] ] } },
{ "type": "Feature", "properties": { "GEBIET_HIST_C": 10078.0, "GEBIET_C": 106.0, "GEBIET_N": "Horgen", "ART_C": 1.0, "ART_N": "Bezirk", "PARENT_HIST_C": null, "PARENT_ART_C": 1.0, "VON": "1960-01-01", "BIS": "2999-12-31" }, "geometry": { "type": "Polygon", "coordinates": [ [ [ 2688678.841699998825788, 1228813.821900002891198 ], [ 2688364.296799998730421, 1228859.223399996757507 ], [ 2687886.346400000154972, 1228500.6824000030756 ], [ 2687717.1499, 1228910.19539999961853 ], [ 2687787.853799998760223, 1229352.648400001227856 ], [ 2687575.12900000018999, 1229627.843999996781349 ], [ 2687108.564599998295307, 1229709.225100003182888 ], [ 2686642.654599998146296, 1229510.782300002872944 ], [ 2686237.924600001424551, 1230372.350900001823902 ], [ 2686443.514400001615286, 1230696.561700001358986 ], [ 2686131.256700001657009, 1231081.814499996602535 ], [ 2685592.931400001049042, 1231338.7742000001017 ], [ 2685177.707600001245737, 1231944.129600003361702 ], [ 2684694.906700000166893, 1233022.275499999523163 ], [ 2683956.58219999819994, 1233575.448700003093109 ], [ 2683575.867499999701977, 1234258.619800001382828 ], [ 2683013.030600000172853, 1235030.957599997520447 ], [ 2682733.394999999552965, 1235615.364 ], [ 2682172.671300001442432, 1235754.613399997353554 ], [ 2681721.052099999040365, 1235621.130400002002716 ], [ 2681379.135499998927116, 1236351.772200003266335 ], [ 2681180.188200000207871, 1236077.540799997514114 ], [ 2680605.371899999678135, 1236344.26860000193119 ], [ 2681035.365200001746416, 1236647.344300002092496 ], [ 2681132.228799998760223, 1237352.0493 ], [ 2680806.127999998629093, 1237763.417999997502193 ], [ 2680996.311700001824647, 1237922.349200002849102 ], [ 2680774.717500001192093, 1239271.278399996459484 ], [ 2680944.318599998950958, 1239610.729500003159046 ], [ 2680799.935499999672174, 1239934.382700003683567 ], [ 2681021.55009999871254, 1240305.88000000291504 ], [ 2680718.034000001847744, 1240696.153499998152256 ], [ 2680480.664500001817942, 1241583.6523 ], [ 2680833.366899999789894, 1241789.169600002467632 ], [ 2681725.932300001382828, 1242021.591099999845028 ], [ 2681741.948800001293421, 1242022.026100002229214 ], [ 2682027.586199998855591, 1242043.8891 ], [ 2682638.82549999980256, 1242650.997500002384186 ], [ 2682962.842399999499321, 1242725.415499999886379 ], [ 2683455.987199999392033, 1243309.8825 ], [ 2683658.815000001341105, 1242996.002499997615814 ], [ 2684235.8246, 1241574.236299999058247 ], [ 2684494.805100001394749, 1241143.285300001502037 ], [ 2684726.38399999961257, 1240006.8834 ], [ 2684913.002300001680851, 1239649.979400001699105 ], [ 2685836.918000001460314, 1238399.216300003230572 ], [ 2686328.911400001496077, 1237455.728100001811981 ], [ 2686557.3449, 1236620.977799996733665 ], [ 2686923.175799999386072, 1236105.009900003671646 ], [ 2687484.630199998617172, 1235277.789700001711026 ], [ 2688957.876200001686811, 1234534.8103 ], [ 2689284.210799999535084, 1234486.847099997103214 ], [ 2690001.255199998617172, 1234063.750200003385544 ], [ 2690575.1831, 1233860.817100003361702 ], [ 2691146.739799998700619, 1234148.215599998831749 ], [ 2691854.32439999980852, 1233807.270900003612041 ], [ 2692510.737799998372793, 1232694.664700001711026 ], [ 2693185.109000001102686, 1232090.254 ], [ 2693620.833999998867512, 1231838.25789999961853 ], [ 2693754.711899999529123, 1231499.457599997520447 ], [ 2694826.8827, 1230665.129 ], [ 2695595.9912, 1230267.6570999994874 ], [ 2695987.964299999177456, 1229571.968900002306327 ], [ 2696445.818399999290705, 1229174.368299998342991 ], [ 2696570.938799999654293, 1228794.662799999117851 ], [ 2696338.0315, 1228500.557599999010563 ], [ 2695799.53830000013113, 1228627.030699997907504 ], [ 2695755.078499998897314, 1228216.8306 ], [ 2695140.128600001335144, 1228029.110899999504909 ], [ 2694655.421500001102686, 1227150.021799996495247 ], [ 2694172.019799999892712, 1226606.899099998176098 ], [ 2694130.1321, 1226046.995700001483783 ], [ 2694338.823299999814481, 1225476.790299996733665 ], [ 2694972.633499998599291, 1224985.884800001978874 ], [ 2695048.958399999886751, 1224362.869400002062321 ], [ 2694151.360299999825656, 1224191.200000002980232 ], [ 2693750.269000001251698, 1223901.137900002300739 ], [ 2693075.959399998188019, 1223910.383100003004074 ], [ 2692705.475499998778105, 1224052.630900003015995 ], [ 2692650.269499998539686, 1225093.175700001418591 ], [ 2692051.012800000142306, 1225158.374200001358986 ], [ 2691224.847600001841784, 1224913.256899997591972 ], [ 2690959.61430000141263, 1225218.301600001752377 ], [ 2690531.17119999974966, 1225234.089599996805191 ], [ 2689993.484900001436472, 1225284.360000000102445 ], [ 2689860.6924, 1225542.512599997222424 ], [ 2690169.186700001824647, 1226062.136799998581409 ], [ 2689320.659400001168251, 1227518.241800002753735 ], [ 2689147.781399998813868, 1228267.425999999046326 ], [ 2688678.841699998825788, 1228813.821900002891198 ] ] ] } },
{ "type": "Feature", "properties": { "GEBIET_HIST_C": 10228.0, "GEBIET_C": 112.0, "GEBIET_N": "Zürich", "ART_C": 1.0, "ART_N": "Bezirk", "PARENT_HIST_C": null, "PARENT_ART_C": 1.0, "VON": "1990-01-01", "BIS": "2999-12-31" }, "geometry": { "type": "Polygon", "coordinates": [ [ [ 2681741.090055224951357, 1242022.002776930341497 ], [ 2681725.932300001382828, 1242021.591099999845028 ], [ 2680833.366899999789894, 1241789.169600002467632 ], [ 2680480.664500001817942, 1241583.6523 ], [ 2680282.798899999819696, 1241865.962999999523163 ], [ 2680368.76969999819994, 1243377.26129999756813 ], [ 2679985.2947, 1244043.768799998098984 ], [ 2680063.667899999767542, 1244294.300700001418591 ], [ 2679208.535999998450279, 1245176.427299998700619 ], [ 2678931.385000001639128, 1245766.691399998962879 ], [ 2678798.459399998188019, 1245957.4949000030756 ], [ 2677952.9901, 1246157.881899997591972 ], [ 2677871.410100001841784, 1246459.7452 ], [ 2677471.512800000142306, 1246776.185099996626377 ], [ 2677911.613333475310355, 1247524.333650405751541 ], [ 2677796.003499999642372, 1247508.690099999308586 ], [ 2677130.3909, 1247908.7139 ], [ 2676466.033300001174212, 1247974.156599998474121 ], [ 2676224.693899999838322, 1248202.542400002479553 ], [ 2676879.381499998271465, 1248287.798600003123283 ], [ 2677197.775199998170137, 1249080.298799999058247 ], [ 2678125.710400000214577, 1249978.313500002026558 ], [ 2677493.706799998879433, 1250224.871899999678135 ], [ 2677678.776, 1250751.227300003170967 ], [ 2678466.021401705686003, 1250858.859313175547868 ], [ 2678386.258099999278784, 1251754.388999998569489 ], [ 2678043.541299998760223, 1251599.159999996423721 ], [ 2677686.631, 1251901.060400001704693 ], [ 2677950.3273, 1252381.151600003242493 ], [ 2678346.247499998658895, 1252668.000900000100955 ], [ 2678414.695999998599291, 1252886.409400001168251 ], [ 2679179.856879491358995, 1252884.522229903843254 ], [ 2679340.794100001454353, 1253306.554099999368191 ], [ 2678965.717799998819828, 1253468.095499999821186 ], [ 2679002.974899999797344, 1253885.206200003623962 ], [ 2680212.4054, 1254300.805799998342991 ], [ 2681080.811299998313189, 1253901.690700002014637 ], [ 2681931.864699999801815, 1253950.625500001013279 ], [ 2682159.203200001269579, 1254109.324500001966953 ], [ 2682877.0724, 1253985.180399999022484 ], [ 2683304.39469999819994, 1254150.795999996364117 ], [ 2684249.847800001502037, 1253917.801600001752377 ], [ 2684402.419100001454353, 1253189.021099999547005 ], [ 2684178.649300001561642, 1252819.411200001835823 ], [ 2684836.674400001764297, 1252342.992399998009205 ], [ 2684867.74336824240163, 1252261.831415686290711 ], [ 2684867.9512, 1252261.288500003516674 ], [ 2685650.279199998825788, 1252756.041900001699105 ], [ 2685593.260000001639128, 1251822.130800001090392 ], [ 2685609.087613661307842, 1251803.876588302431628 ], [ 2685609.991, 1251802.834700003266335 ], [ 2686717.3202, 1251441.1343 ], [ 2686729.140140529256314, 1251437.341896493686363 ], [ 2686755.615600001066923, 1251428.8473 ], [ 2687446.750100001692772, 1251220.777900002896786 ], [ 2687195.401200000196695, 1250796.748800002038479 ], [ 2687390.888799998909235, 1250159.923 ], [ 2687031.428399998694658, 1250214.74719999730587 ], [ 2686510.866399999707937, 1249650.881700001657009 ], [ 2686417.046, 1249238.353100001811981 ], [ 2687101.82490000128746, 1249016.424199998378754 ], [ 2686950.0055, 1248745.423100002110004 ], [ 2687494.291900001466274, 1248163.190499998629093 ], [ 2687486.395899999886751, 1247873.232100002467632 ], [ 2687861.985599998384714, 1247444.117600001394749 ], [ 2687854.762182340491563, 1247437.550594946602359 ], [ 2687854.709499999880791, 1247437.502700001001358 ], [ 2687857.070300001651049, 1247419.921899996697903 ], [ 2687865.272100001573563, 1247410.13180000311695 ], [ 2687959.717500001192093, 1247372.434399999678135 ], [ 2688181.906100001186132, 1247083.328299999237061 ], [ 2688340.921300001442432, 1246963.7117000001017 ], [ 2689055.285399999469519, 1246888.074299998581409 ], [ 2688843.724399998784065, 1246293.7562 ], [ 2689373.031899999827147, 1246146.109099999070168 ], [ 2689602.834199998527765, 1245495.473399996757507 ], [ 2688127.644099999219179, 1245403.137699998915195 ], [ 2687880.0337, 1245079.219400003552437 ], [ 2686711.404599998146296, 1245303.65259999781847 ], [ 2686709.951537416316569, 1245300.363087234087288 ], [ 2686709.741899999789894, 1245299.88849999755621 ], [ 2686130.0381, 1244833.497100003063679 ], [ 2685248.611999999731779, 1244642.664099998772144 ], [ 2685119.358600001782179, 1244564.925999999046326 ], [ 2685063.5907, 1244522.879299998516217 ], [ 2684633.334499999880791, 1245141.949 ], [ 2684027.123500000219792, 1245254.719999998807907 ], [ 2683631.187899999320507, 1246502.967 ], [ 2683626.2139105591923, 1246515.503483591601253 ], [ 2683625.9899, 1246516.064900003373623 ], [ 2683492.402199998497963, 1246815.029799997806549 ], [ 2683492.108166068326682, 1246814.951360506936908 ], [ 2683468.771000001579523, 1246808.725699998438358 ], [ 2683374.978100001811981, 1246783.4695999994874 ], [ 2683374.772268457338214, 1246783.230394870974123 ], [ 2683370.901999998837709, 1246778.732600003713742 ], [ 2683180.180300001055002, 1246682.5317 ], [ 2683180.143267807550728, 1246682.383373193675652 ], [ 2683179.80629999935627, 1246681.033699996769428 ], [ 2682900.772999998182058, 1246197.523299999535084 ], [ 2682902.238699998706579, 1245162.427500002086163 ], [ 2682896.765299998223782, 1245101.618500001495704 ], [ 2682839.303299999795854, 1244783.850900001823902 ], [ 2683060.174899999052286, 1243935.324199996888638 ], [ 2683464.564300000201911, 1243316.831299998098984 ], [ 2683455.987199999392033, 1243309.8825 ], [ 2682962.842399999499321, 1242725.415499999886379 ], [ 2682638.82549999980256, 1242650.997500002384186 ], [ 2682027.586199998855591, 1242043.8891 ], [ 2681741.948800001293421, 1242022.026100002229214 ], [ 2681741.090055224951357, 1242022.002776930341497 ] ] ] } },
{ "type": "Feature", "properties": { "GEBIET_HIST_C": 10119.0, "GEBIET_C": 111.0, "GEBIET_N": "Zürich", "ART_C": 1.0, "ART_N": "Bezirk", "PARENT_HIST_C": null, "PARENT_ART_C": 1.0, "VON": "1960-01-01", "BIS": "1985-12-31" }, "geometry": { "type": "Polygon", "coordinates": [ [ [ 2678289.014499999582767, 1245278.283399999141693 ], [ 2677856.89469999819994, 1244913.021899998188019 ], [ 2677873.421999998390675, 1244659.8882 ], [ 2677016.1206, 1244847.2408 ], [ 2676819.30009999871254, 1244261.535899996757507 ], [ 2677134.461500000208616, 1243992.735299997031689 ], [ 2677236.415500000119209, 1243320.50450000166893 ], [ 2676835.221700001507998, 1243159.071500003105029 ], [ 2676751.022399999201298, 1243150.7826 ], [ 2676435.367899999022484, 1242672.079300001263618 ], [ 2675302.045200001448393, 1242083.400600001215935 ], [ 2674896.08669999986887, 1242305.0533 ], [ 2674108.560199998319149, 1242001.25500000291504 ], [ 2673610.716699998825788, 1242263.985200002789497 ], [ 2673926.666000001132488, 1243008.876500003039837 ], [ 2673896.09910000115633, 1243378.156900003552437 ], [ 2673204.476599998772144, 1243864.72070000320673 ], [ 2672937.183899998664856, 1244416.289700001711026 ], [ 2673195.250399999320507, 1245408.907899997895584 ], [ 2672993.874000001698732, 1246366.332099996507168 ], [ 2673236.83219999819994, 1246652.981499999761581 ], [ 2673144.377399999648333, 1247049.497000001370907 ], [ 2672652.7648, 1247186.992600001394749 ], [ 2672576.044799998402596, 1247549.09179999679327 ], [ 2672217.937600001692772, 1248256.812700003385544 ], [ 2672201.6886, 1249254.476400002837181 ], [ 2672305.013799998909235, 1249663.132700003683567 ], [ 2671966.421699999831617, 1249883.093400001525879 ], [ 2671256.345899999141693, 1249825.8507999998983 ], [ 2671054.579799998551607, 1250294.0986 ], [ 2670036.868599999696016, 1250191.583400003612041 ], [ 2669989.857999999076128, 1250598.072300001978874 ], [ 2670767.146600001025945, 1250864.13740000128746 ], [ 2671002.8412000015378, 1250599.906099997693673 ], [ 2671402.332100000232458, 1251030.321000002324581 ], [ 2671139.602899998426437, 1251359.503899998962879 ], [ 2671956.594999998807907, 1252778.884000003105029 ], [ 2671600.739999998360872, 1253450.045299999415874 ], [ 2670720.356999999843538, 1253654.847900003194809 ], [ 2670798.471999999135733, 1254093.3746 ], [ 2671312.9901, 1254219.770900003612041 ], [ 2672331.837000001221895, 1254288.400700002908707 ], [ 2672792.419499999843538, 1254461.4045 ], [ 2673729.852699998766184, 1254211.1598 ], [ 2673890.595899999141693, 1254172.412 ], [ 2674472.47690000012517, 1253925.952200002968311 ], [ 2675889.162999998778105, 1253538.040700003504753 ], [ 2676336.2195999994874, 1253303.54 ], [ 2676541.964999999850988, 1252761.835500001907349 ], [ 2677259.4342, 1252507.699799999594688 ], [ 2678346.247499998658895, 1252668.000900000100955 ], [ 2678414.695999998599291, 1252886.409400001168251 ], [ 2679179.856879491358995, 1252884.522229903843254 ], [ 2679340.794100001454353, 1253306.554099999368191 ], [ 2678965.717799998819828, 1253468.095499999821186 ], [ 2679002.974899999797344, 1253885.206200003623962 ], [ 2680212.4054, 1254300.805799998342991 ], [ 2681080.811299998313189, 1253901.690700002014637 ], [ 2681931.864699999801815, 1253950.625500001013279 ], [ 2682159.203200001269579, 1254109.324500001966953 ], [ 2682877.0724, 1253985.180399999022484 ], [ 2683304.39469999819994, 1254150.795999996364117 ], [ 2684249.847800001502037, 1253917.801600001752377 ], [ 2684402.419100001454353, 1253189.021099999547005 ], [ 2684178.649300001561642, 1252819.411200001835823 ], [ 2684836.674400001764297, 1252342.992399998009205 ], [ 2684867.74336824240163, 1252261.831415686290711 ], [ 2684867.9512, 1252261.288500003516674 ], [ 2685650.279199998825788, 1252756.041900001699105 ], [ 2685593.260000001639128, 1251822.130800001090392 ], [ 2685609.087613661307842, 1251803.876588302431628 ], [ 2685609.991, 1251802.834700003266335 ], [ 2686717.3202, 1251441.1343 ], [ 2686729.140140529256314, 1251437.341896493686363 ], [ 2686755.615600001066923, 1251428.8473 ], [ 2687446.750100001692772, 1251220.777900002896786 ], [ 2687195.401200000196695, 1250796.748800002038479 ], [ 2687390.888799998909235, 1250159.923 ], [ 2687031.428399998694658, 1250214.74719999730587 ], [ 2686510.866399999707937, 1249650.881700001657009 ], [ 2686417.046, 1249238.353100001811981 ], [ 2687101.82490000128746, 1249016.424199998378754 ], [ 2686950.0055, 1248745.423100002110004 ], [ 2687494.291900001466274, 1248163.190499998629093 ], [ 2687486.395899999886751, 1247873.232100002467632 ], [ 2687861.985599998384714, 1247444.117600001394749 ], [ 2687854.762182340491563, 1247437.550594946602359 ], [ 2687854.709499999880791, 1247437.502700001001358 ], [ 2687857.070300001651049, 1247419.921899996697903 ], [ 2687865.272100001573563, 1247410.13180000311695 ], [ 2687959.717500001192093, 1247372.434399999678135 ], [ 2688181.906100001186132, 1247083.328299999237061 ], [ 2688340.921300001442432, 1246963.7117000001017 ], [ 2689055.285399999469519, 1246888.074299998581409 ], [ 2688843.724399998784065, 1246293.7562 ], [ 2689373.031899999827147, 1246146.109099999070168 ], [ 2689602.834199998527765, 1245495.473399996757507 ], [ 2689726.638399999588728, 1245030.36879999935627 ], [ 2689330.595600001513958, 1244044.182800002396107 ], [ 2689073.19819999858737, 1244234.392700001597404 ], [ 2687995.613299999386072, 1243319.663900002837181 ], [ 2687177.958700001239777, 1242743.153099998831749 ], [ 2686896.5337, 1242731.485399998724461 ], [ 2686376.971400000154972, 1243161.057099997997284 ], [ 2685636.175799999386072, 1242969.726599998772144 ], [ 2685063.5907, 1244522.879299998516217 ], [ 2684633.334499999880791, 1245141.949 ], [ 2684027.123500000219792, 1245254.719999998807907 ], [ 2683631.187899999320507, 1246502.967 ], [ 2683626.2139105591923, 1246515.503483591601253 ], [ 2683625.9899, 1246516.064900003373623 ], [ 2683492.402199998497963, 1246815.029799997806549 ], [ 2683492.108166068326682, 1246814.951360506936908 ], [ 2683468.771000001579523, 1246808.725699998438358 ], [ 2683374.978100001811981, 1246783.4695999994874 ], [ 2683374.772268457338214, 1246783.230394870974123 ], [ 2683370.901999998837709, 1246778.732600003713742 ], [ 2683180.180300001055002, 1246682.5317 ], [ 2683180.143267807550728, 1246682.383373193675652 ], [ 2683179.80629999935627, 1246681.033699996769428 ], [ 2682900.772999998182058, 1246197.523299999535084 ], [ 2682902.238699998706579, 1245162.427500002086163 ], [ 2682896.765299998223782, 1245101.618500001495704 ], [ 2682839.303299999795854, 1244783.850900001823902 ], [ 2683060.174899999052286, 1243935.324199996888638 ], [ 2683464.564300000201911, 1243316.831299998098984 ], [ 2683455.987199999392033, 1243309.8825 ], [ 2682962.842399999499321, 1242725.415499999886379 ], [ 2682638.82549999980256, 1242650.997500002384186 ], [ 2682027.586199998855591, 1242043.8891 ], [ 2681741.948800001293421, 1242022.026100002229214 ], [ 2681741.090055224951357, 1242022.002776930341497 ], [ 2681725.932300001382828, 1242021.591099999845028 ], [ 2680833.366899999789894, 1241789.169600002467632 ], [ 2680480.664500001817942, 1241583.6523 ], [ 2680282.798899999819696, 1241865.962999999523163 ], [ 2680368.76969999819994, 1243377.26129999756813 ], [ 2679985.2947, 1244043.768799998098984 ], [ 2680063.667899999767542, 1244294.300700001418591 ], [ 2679208.535999998450279, 1245176.427299998700619 ], [ 2678666.099399998784065, 1245395.832500003278255 ], [ 2678289.014499999582767, 1245278.283399999141693 ] ] ] } },
{ "type": "Feature", "properties": { "GEBIET_HIST_C": 10077.0, "GEBIET_C": 107.0, "GEBIET_N": "Meilen", "ART_C": 1.0, "ART_N": "Bezirk", "PARENT_HIST_C": null, "PARENT_ART_C": 1.0, "VON": "1960-01-01", "BIS": "1985-12-31" }, "geometry": { "type": "Polygon", "coordinates": [ [ [ 2689330.595600001513958, 1244044.182800002396107 ], [ 2689726.638399999588728, 1245030.36879999935627 ], [ 2690489.148899998515844, 1244332.095299996435642 ], [ 2690491.6785, 1244016.382299996912479 ], [ 2691254.926600001752377, 1243542.411499999696389 ], [ 2691277.813399999868125, 1242813.554099999368191 ], [ 2691828.52479999884963, 1242318.891699999570847 ], [ 2692238.750899999868125, 1241053.979999996721745 ], [ 2691967.812600001692772, 1240653.514700002968311 ], [ 2692067.546, 1240426.855099998414516 ], [ 2692352.319299999624491, 1240145.285599999129772 ], [ 2692522.279199998825788, 1239617.837399996817112 ], [ 2692979.356899999082088, 1239343.042900003492832 ], [ 2693398.647399999201298, 1238478.040399998426437 ], [ 2694134.66609999909997, 1238111.0665 ], [ 2694182.415600001811981, 1237786.565800003707409 ], [ 2694620.434900000225753, 1237434.280000001192093 ], [ 2695062.7626, 1236810.798500001430511 ], [ 2695611.344999998807907, 1237102.301899999380112 ], [ 2696146.28899999987334, 1237042.054200001060963 ], [ 2696433.587499998509884, 1237778.586900003254414 ], [ 2696745.959199998527765, 1237781.339900002116337 ], [ 2697188.746300000231713, 1238233.236299999058247 ], [ 2697508.3396, 1237996.138400003314018 ], [ 2698205.988699998706579, 1237961.613300003111362 ], [ 2698183.739100001752377, 1237559.370399996638298 ], [ 2698619.18470000103116, 1236881.460699997842312 ], [ 2698453.030999999493361, 1236547.421400003135204 ], [ 2698982.481600001454353, 1236036.800300002098083 ], [ 2699398.63799999980256, 1236226.098199999891222 ], [ 2700005.143699999898672, 1236117.480200000107288 ], [ 2700625.640999998897314, 1236317.079899996286258 ], [ 2701576.684799998998642, 1235820.813500002026558 ], [ 2701870.438999999314547, 1235359.2082 ], [ 2701887.7681, 1234961.4397 ], [ 2702318.352899998426437, 1234662.926600001752377 ], [ 2702316.327599998563528, 1234366.685699999099597 ], [ 2702733.907499998807907, 1233960.379699997603893 ], [ 2703404.902199998497963, 1233801.6202 ], [ 2702755.44939999980852, 1232901.959200002485886 ], [ 2702129.784099999815226, 1232359.892800003290176 ], [ 2701716.491500001400709, 1232457.169399999082088 ], [ 2701141.746199999004602, 1232371.2034 ], [ 2699826.651, 1232278.94820000231266 ], [ 2698763.7769, 1232334.972000002861023 ], [ 2698313.237199999392033, 1232216.570100001990795 ], [ 2697472.782699998468161, 1232666.290600001811981 ], [ 2696672.584699999541044, 1232858.760799996554852 ], [ 2696052.227200001478195, 1233556.084600001573563 ], [ 2695523.711399998515844, 1233718.606700003147125 ], [ 2694499.781100001186132, 1234548.843699999153614 ], [ 2693827.751400001347065, 1234862.747699998319149 ], [ 2692998.611299999058247, 1235207.274499997496605 ], [ 2692464.185499999672174, 1235556.163699999684468 ], [ 2691799.2023, 1235570.211599998176098 ], [ 2691419.447999998927116, 1235888.500699996948242 ], [ 2690790.964999999850988, 1235918.876900002360344 ], [ 2690591.136999998241663, 1236200.464299999177456 ], [ 2690043.198800001293421, 1236282.313100002706051 ], [ 2689002.671699999831617, 1237023.634000003105029 ], [ 2688640.314800001680851, 1237542.47749999910593 ], [ 2687716.0154, 1238756.904399998486042 ], [ 2687523.971099998801947, 1239269.107299998402596 ], [ 2687029.835499998182058, 1239734.713799998164177 ], [ 2686804.94649999961257, 1240213.631300002336502 ], [ 2686463.863099999725819, 1240622.993900001049042 ], [ 2686104.105200000107288, 1241324.880199998617172 ], [ 2686169.2122, 1241627.88000000291504 ], [ 2685767.489999998360872, 1242464.941600002348423 ], [ 2685636.175799999386072, 1242969.726599998772144 ], [ 2686376.971400000154972, 1243161.057099997997284 ], [ 2686896.5337, 1242731.485399998724461 ], [ 2687177.958700001239777, 1242743.153099998831749 ], [ 2687995.613299999386072, 1243319.663900002837181 ], [ 2689073.19819999858737, 1244234.392700001597404 ], [ 2689330.595600001513958, 1244044.182800002396107 ] ] ] } },
{ "type": "Feature", "properties": { "GEBIET_HIST_C": 10077.0, "GEBIET_C": 107.0, "GEBIET_N": "Meilen", "ART_C": 1.0, "ART_N": "Bezirk", "PARENT_HIST_C": null, "PARENT_ART_C": 1.0, "VON": "1986-01-01", "BIS": "2999-12-31" }, "geometry": { "type": "Polygon", "coordinates": [ [ [ 2685119.358600001782179, 1244564.925999999046326 ], [ 2685248.611999999731779, 1244642.664099998772144 ], [ 2686130.0381, 1244833.497100003063679 ], [ 2686709.741899999789894, 1245299.88849999755621 ], [ 2686711.404599998146296, 1245303.65259999781847 ], [ 2687880.0337, 1245079.219400003552437 ], [ 2688127.644099999219179, 1245403.137699998915195 ], [ 2689602.834199998527765, 1245495.473399996757507 ], [ 2689726.638399999588728, 1245030.36879999935627 ], [ 2690489.148899998515844, 1244332.095299996435642 ], [ 2690491.6785, 1244016.382299996912479 ], [ 2691254.926600001752377, 1243542.411499999696389 ], [ 2691277.813399999868125, 1242813.554099999368191 ], [ 2691828.52479999884963, 1242318.891699999570847 ], [ 2692238.750899999868125, 1241053.979999996721745 ], [ 2691967.812600001692772, 1240653.514700002968311 ], [ 2692067.546, 1240426.855099998414516 ], [ 2692352.319299999624491, 1240145.285599999129772 ], [ 2692522.279199998825788, 1239617.837399996817112 ], [ 2692979.356899999082088, 1239343.042900003492832 ], [ 2693398.647399999201298, 1238478.040399998426437 ], [ 2694134.66609999909997, 1238111.0665 ], [ 2694182.415600001811981, 1237786.565800003707409 ], [ 2694620.434900000225753, 1237434.280000001192093 ], [ 2695062.7626, 1236810.798500001430511 ], [ 2695611.344999998807907, 1237102.301899999380112 ], [ 2696146.28899999987334, 1237042.054200001060963 ], [ 2696433.587499998509884, 1237778.586900003254414 ], [ 2696745.959199998527765, 1237781.339900002116337 ], [ 2697188.746300000231713, 1238233.236299999058247 ], [ 2697508.3396, 1237996.138400003314018 ], [ 2698205.988699998706579, 1237961.613300003111362 ], [ 2698183.739100001752377, 1237559.370399996638298 ], [ 2698619.18470000103116, 1236881.460699997842312 ], [ 2698453.030999999493361, 1236547.421400003135204 ], [ 2698982.481600001454353, 1236036.800300002098083 ], [ 2699398.63799999980256, 1236226.098199999891222 ], [ 2700005.143699999898672, 1236117.480200000107288 ], [ 2700625.640999998897314, 1236317.079899996286258 ], [ 2701576.684799998998642, 1235820.813500002026558 ], [ 2701870.438999999314547, 1235359.2082 ], [ 2701887.7681, 1234961.4397 ], [ 2702318.352899998426437, 1234662.926600001752377 ], [ 2702316.327599998563528, 1234366.685699999099597 ], [ 2702733.907499998807907, 1233960.379699997603893 ], [ 2703404.902199998497963, 1233801.6202 ], [ 2702755.44939999980852, 1232901.959200002485886 ], [ 2702129.784099999815226, 1232359.892800003290176 ], [ 2701716.491500001400709, 1232457.169399999082088 ], [ 2701141.746199999004602, 1232371.2034 ], [ 2699826.651, 1232278.94820000231266 ], [ 2698763.7769, 1232334.972000002861023 ], [ 2698313.237199999392033, 1232216.570100001990795 ], [ 2697472.782699998468161, 1232666.290600001811981 ], [ 2696672.584699999541044, 1232858.760799996554852 ], [ 2696052.227200001478195, 1233556.084600001573563 ], [ 2695523.711399998515844, 1233718.606700003147125 ], [ 2694499.781100001186132, 1234548.843699999153614 ], [ 2693827.751400001347065, 1234862.747699998319149 ], [ 2692998.611299999058247, 1235207.274499997496605 ], [ 2692464.185499999672174, 1235556.163699999684468 ], [ 2691799.2023, 1235570.211599998176098 ], [ 2691419.447999998927116, 1235888.500699996948242 ], [ 2690790.964999999850988, 1235918.876900002360344 ], [ 2690591.136999998241663, 1236200.464299999177456 ], [ 2690043.198800001293421, 1236282.313100002706051 ], [ 2689002.671699999831617, 1237023.634000003105029 ], [ 2688640.314800001680851, 1237542.47749999910593 ], [ 2687716.0154, 1238756.904399998486042 ], [ 2687523.971099998801947, 1239269.107299998402596 ], [ 2687029.835499998182058, 1239734.713799998164177 ], [ 2686804.94649999961257, 1240213.631300002336502 ], [ 2686463.863099999725819, 1240622.993900001049042 ], [ 2686104.105200000107288, 1241324.880199998617172 ], [ 2686169.2122, 1241627.88000000291504 ], [ 2685767.489999998360872, 1242464.941600002348423 ], [ 2685636.175799999386072, 1242969.726599998772144 ], [ 2685063.5907, 1244522.879299998516217 ], [ 2685119.358600001782179, 1244564.925999999046326 ] ] ] } },
{ "type": "Feature", "properties": { "GEBIET_HIST_C": 10075.0, "GEBIET_C": 109.0, "GEBIET_N": "Uster", "ART_C": 1.0, "ART_N": "Bezirk", "PARENT_HIST_C": null, "PARENT_ART_C": 1.0, "VON": "1960-01-01", "BIS": "2999-12-31" }, "geometry": { "type": "Polygon", "coordinates": [ [ [ 2699235.635099999606609, 1245832.641000002622604 ], [ 2699610.990299999713898, 1245144.8605 ], [ 2699369.250599998980761, 1244685.313500002026558 ], [ 2699817.845600001513958, 1244231.704999998211861 ], [ 2699557.76240000128746, 1243590.594700001180172 ], [ 2699525.020799998193979, 1243320.449500001966953 ], [ 2699854.796799998730421, 1242955.64190000295639 ], [ 2700146.892200000118464, 1243026.012699998915195 ], [ 2700166.711599998176098, 1242623.8768 ], [ 2699680.9032, 1242686.185500003397465 ], [ 2699165.29, 1242385.826499998569489 ], [ 2698802.891199998557568, 1242348.583400003612041 ], [ 2698458.456399999558926, 1242003.558399997651577 ], [ 2698525.337699998170137, 1241589.6743 ], [ 2698094.3114, 1241207.603200003504753 ], [ 2698162.108899999409914, 1240996.130699999630451 ], [ 2697659.132499999832362, 1240582.566699996590614 ], [ 2698481.1809, 1239995.5709 ], [ 2698229.721500001847744, 1239742.792599998414516 ], [ 2698443.8418, 1239264.422600001096725 ], [ 2697572.347099999897182, 1239068.250299997627735 ], [ 2697383.639899998903275, 1238838.180600002408028 ], [ 2697712.952599998563528, 1238397.827699996298179 ], [ 2698242.995799999684095, 1238276.82 ], [ 2698205.988699998706579, 1237961.613300003111362 ], [ 2697508.3396, 1237996.138400003314018 ], [ 2697188.746300000231713, 1238233.236299999058247 ], [ 2696745.959199998527765, 1237781.339900002116337 ], [ 2696433.587499998509884, 1237778.586900003254414 ], [ 2696146.28899999987334, 1237042.054200001060963 ], [ 2695611.344999998807907, 1237102.301899999380112 ], [ 2695062.7626, 1236810.798500001430511 ], [ 2694620.434900000225753, 1237434.280000001192093 ], [ 2694182.415600001811981, 1237786.565800003707409 ], [ 2694134.66609999909997, 1238111.0665 ], [ 2693398.647399999201298, 1238478.040399998426437 ], [ 2692979.356899999082088, 1239343.042900003492832 ], [ 2692522.279199998825788, 1239617.837399996817112 ], [ 2692352.319299999624491, 1240145.285599999129772 ], [ 2692067.546, 1240426.855099998414516 ], [ 2691967.812600001692772, 1240653.514700002968311 ], [ 2692238.750899999868125, 1241053.979999996721745 ], [ 2691828.52479999884963, 1242318.891699999570847 ], [ 2691277.813399999868125, 1242813.554099999368191 ], [ 2691254.926600001752377, 1243542.411499999696389 ], [ 2690491.6785, 1244016.382299996912479 ], [ 2690489.148899998515844, 1244332.095299996435642 ], [ 2689726.638399999588728, 1245030.36879999935627 ], [ 2689602.834199998527765, 1245495.473399996757507 ], [ 2689373.031899999827147, 1246146.109099999070168 ], [ 2688843.724399998784065, 1246293.7562 ], [ 2689055.285399999469519, 1246888.074299998581409 ], [ 2688340.921300001442432, 1246963.7117000001017 ], [ 2688181.906100001186132, 1247083.328299999237061 ], [ 2687959.717500001192093, 1247372.434399999678135 ], [ 2687865.272100001573563, 1247410.13180000311695 ], [ 2687857.070300001651049, 1247419.921899996697903 ], [ 2687854.709499999880791, 1247437.502700001001358 ], [ 2687861.985599998384714, 1247444.117600001394749 ], [ 2687486.395899999886751, 1247873.232100002467632 ], [ 2687494.291900001466274, 1248163.190499998629093 ], [ 2686950.0055, 1248745.423100002110004 ], [ 2687101.82490000128746, 1249016.424199998378754 ], [ 2686417.046, 1249238.353100001811981 ], [ 2686510.866399999707937, 1249650.881700001657009 ], [ 2687031.428399998694658, 1250214.74719999730587 ], [ 2687390.888799998909235, 1250159.923 ], [ 2687195.401200000196695, 1250796.748800002038479 ], [ 2687446.750100001692772, 1251220.777900002896786 ], [ 2687833.282800000160933, 1250965.752300001680851 ], [ 2688247.0984, 1251313.658699996769428 ], [ 2689082.538899999111891, 1251392.480800002813339 ], [ 2689439.699299998581409, 1251334.1963 ], [ 2689844.817899998277426, 1251543.9217 ], [ 2689440.621199999004602, 1252651.240299999713898 ], [ 2689328.892299998551607, 1253224.4886 ], [ 2689754.643300000112504, 1253908.455700002610683 ], [ 2690122.592300001531839, 1253611.604400001699105 ], [ 2691165.4655, 1253347.92400000244379 ], [ 2691597.71059999987483, 1252966.1202 ], [ 2692043.079799998551607, 1252887.491899996995926 ], [ 2692907.285699999891222, 1252252.053199999034405 ], [ 2693097.0641999989748, 1252362.691200003027916 ], [ 2693428.617199998348951, 1251989.843199997907504 ], [ 2693898.729400001466274, 1252027.199299998581409 ], [ 2694337.33219999819994, 1251425.779600002104416 ], [ 2694874.818199999630451, 1251333.631499998504296 ], [ 2695546.492199998348951, 1250647.79900000244379 ], [ 2697571.9222999997437, 1250023.5511 ], [ 2697202.432, 1249266.761399999260902 ], [ 2697428.510600000154227, 1248729.642199999885634 ], [ 2697591.625700000207871, 1248785.091300003230572 ], [ 2698535.749099999666214, 1247944.5185 ], [ 2698543.268399998545647, 1247559.623099997639656 ], [ 2699304.848600000143051, 1247091.6699 ], [ 2699462.998599998652935, 1246730.870099999010563 ], [ 2699237.327100001275539, 1246554.114799998700619 ], [ 2699235.635099999606609, 1245832.641000002622604 ] ], [ [ 2695930.953600000124425, 1243078.4274 ], [ 2695796.768699999898672, 1243355.600000001490116 ], [ 2694823.0537, 1243918.648299999535084 ], [ 2694543.721599999815226, 1244564.873199999099597 ], [ 2694464.444499999284744, 1245435.377499997615814 ], [ 2693793.188200000207871, 1246505.285999998450279 ], [ 2693432.75290000019595, 1246594.119800001382828 ], [ 2692695.807399999350309, 1247523.7212999984622 ], [ 2692309.092999998480082, 1247708.28660000115633 ], [ 2691921.986900001764297, 1247591.0119 ], [ 2691696.657699998468161, 1246482.271899998188019 ], [ 2692043.321699999272823, 1245938.041500001912937 ], [ 2692991.884399998933077, 1244736.494599997997284 ], [ 2693471.622499998658895, 1244534.490699999034405 ], [ 2693904.170899998396635, 1243864.970200002193451 ], [ 2694546.4868, 1242590.711099997162819 ], [ 2694617.164799998980016, 1242053.054099999368191 ], [ 2695145.0707, 1241956.749300003051758 ], [ 2695372.8092, 1242438.440999999642372 ], [ 2695780.744899999350309, 1242522.857699997490272 ], [ 2695930.953600000124425, 1243078.4274 ] ] ] } },
{ "type": "Feature", "properties": { "GEBIET_HIST_C": 10079.0, "GEBIET_C": 105.0, "GEBIET_N": "Hinwil", "ART_C": 1.0, "ART_N": "Bezirk", "PARENT_HIST_C": null, "PARENT_ART_C": 1.0, "VON": "1960-01-01", "BIS": "2999-12-31" }, "geometry": { "type": "Polygon", "coordinates": [ [ [ 2706899.230700001120567, 1246090.289800003170967 ], [ 2707126.55689999833703, 1247005.474 ], [ 2708188.7555, 1246421.806999996304512 ], [ 2708279.731500000227243, 1246072.41889999806881 ], [ 2708755.3915, 1245961.605599999427795 ], [ 2709139.5337, 1245571.5050999969244 ], [ 2709597.789599999785423, 1245513.032300002872944 ], [ 2710682.514899998903275, 1245691.781599998474121 ], [ 2711017.422799999825656, 1245350.222900003194809 ], [ 2711371.179399999789894, 1245658.937399998307228 ], [ 2711248.192600000184029, 1246210.628499999642372 ], [ 2711472.432699999772012, 1246511.165399998426437 ], [ 2711903.994600001722574, 1246389.417900003492832 ], [ 2712205.205200001597404, 1246963.246200002729893 ], [ 2712700.837900001555681, 1247066.504299998516217 ], [ 2712801.977400001138449, 1247457.289599999785423 ], [ 2713436.736200001090765, 1248169.132200002903119 ], [ 2713652.300900001078844, 1248312.008299998939037 ], [ 2714238.558299999684095, 1247867.829699999885634 ], [ 2714383.878600001335144, 1247241.536499999696389 ], [ 2715007.368999999016523, 1245907.977899998426437 ], [ 2715502.8728, 1245948.365199998021126 ], [ 2715824.179399999789894, 1245694.2837999984622 ], [ 2716044.2357, 1245192.730099998414516 ], [ 2715960.607700001448393, 1244357.068000003695488 ], [ 2716432.943199999630451, 1244152.098199999891222 ], [ 2716254.937600001692772, 1243185.806900002062321 ], [ 2716589.659499999135733, 1242453.737099997699261 ], [ 2716900.892299998551607, 1242099.049199998378754 ], [ 2716175.408100001513958, 1240719.807300001382828 ], [ 2715374.4646, 1240618.089100003242493 ], [ 2714784.850900001823902, 1240373.678900003433228 ], [ 2714209.942299999296665, 1239018.538599997758865 ], [ 2713213.099700000137091, 1238655.764600001275539 ], [ 2713620.661799999885261, 1238139.309299997985363 ], [ 2713863.032800000160933, 1237613.97760000010021 ], [ 2714211.149599999189377, 1237631.136399999260902 ], [ 2714139.181200001388788, 1237103.487400002777576 ], [ 2713687.974700000137091, 1236774.670100003713742 ], [ 2713835.80519999936223, 1236255.613899998366833 ], [ 2713448.225399999879301, 1235903.137900002300739 ], [ 2713109.116599999368191, 1235295.943999998504296 ], [ 2712751.85149999987334, 1235288.842 ], [ 2711265.615200001746416, 1234764.604699999094009 ], [ 2710999.515000000130385, 1234898.083800002932549 ], [ 2709500.832899998873472, 1234553.292999997502193 ], [ 2708612.688399999868125, 1234445.5669 ], [ 2708652.844099998474121, 1234010.908699996769428 ], [ 2708343.521200001239777, 1233668.068000003695488 ], [ 2707769.016399998217821, 1233539.329999998211861 ], [ 2707035.815699998289347, 1233848.086000002920628 ], [ 2706994.7736, 1234280.251299999654293 ], [ 2705910.597899999469519, 1233845.100500002503395 ], [ 2705197.316699999850243, 1234214.320299997925758 ], [ 2704685.696199998259544, 1234239.078900001943111 ], [ 2703404.902199998497963, 1233801.6202 ], [ 2702733.907499998807907, 1233960.379699997603893 ], [ 2702316.327599998563528, 1234366.685699999099597 ], [ 2702318.352899998426437, 1234662.926600001752377 ], [ 2701887.7681, 1234961.4397 ], [ 2701870.438999999314547, 1235359.2082 ], [ 2701576.684799998998642, 1235820.813500002026558 ], [ 2700625.640999998897314, 1236317.079899996286258 ], [ 2700005.143699999898672, 1236117.480200000107288 ], [ 2699398.63799999980256, 1236226.098199999891222 ], [ 2698982.481600001454353, 1236036.800300002098083 ], [ 2698453.030999999493361, 1236547.421400003135204 ], [ 2698619.18470000103116, 1236881.460699997842312 ], [ 2698183.739100001752377, 1237559.370399996638298 ], [ 2698205.988699998706579, 1237961.613300003111362 ], [ 2698242.995799999684095, 1238276.82 ], [ 2697712.952599998563528, 1238397.827699996298179 ], [ 2697383.639899998903275, 1238838.180600002408028 ], [ 2697572.347099999897182, 1239068.250299997627735 ], [ 2698443.8418, 1239264.422600001096725 ], [ 2698229.721500001847744, 1239742.792599998414516 ], [ 2698481.1809, 1239995.5709 ], [ 2697659.132499999832362, 1240582.566699996590614 ], [ 2698162.108899999409914, 1240996.130699999630451 ], [ 2698094.3114, 1241207.603200003504753 ], [ 2698525.337699998170137, 1241589.6743 ], [ 2698458.456399999558926, 1242003.558399997651577 ], [ 2698802.891199998557568, 1242348.583400003612041 ], [ 2699165.29, 1242385.826499998569489 ], [ 2699680.9032, 1242686.185500003397465 ], [ 2700166.711599998176098, 1242623.8768 ], [ 2700146.892200000118464, 1243026.012699998915195 ], [ 2699854.796799998730421, 1242955.64190000295639 ], [ 2699525.020799998193979, 1243320.449500001966953 ], [ 2699557.76240000128746, 1243590.594700001180172 ], [ 2699817.845600001513958, 1244231.704999998211861 ], [ 2699369.250599998980761, 1244685.313500002026558 ], [ 2699610.990299999713898, 1245144.8605 ], [ 2700144.62790000019595, 1245267.05120000243187 ], [ 2700657.2692, 1245646.695799998939037 ], [ 2700925.403999999165535, 1245179.283399999141693 ], [ 2701000.078499998897314, 1244295.510099999606609 ], [ 2701241.639600001275539, 1244167.471900001168251 ], [ 2702193.234199999831617, 1244343.36819999688305 ], [ 2702193.265988279599696, 1244343.471406215103343 ], [ 2702582.607700001448393, 1244375.000200003385544 ], [ 2703230.134699999820441, 1244117.0050999969244 ], [ 2704218.862100001424551, 1243858.9723 ], [ 2705072.236900001764297, 1244117.496299996972084 ], [ 2704486.188299998175353, 1244688.067100003361702 ], [ 2704963.847699999809265, 1244918.800899997353554 ], [ 2705695.970300000160933, 1244906.896799996495247 ], [ 2705837.207400001585484, 1245264.511100001633167 ], [ 2706899.230700001120567, 1246090.289800003170967 ] ] ] } },
{ "type": "Feature", "properties": { "GEBIET_HIST_C": 10080.0, "GEBIET_C": 104.0, "GEBIET_N": "Dielsdorf", "ART_C": 1.0, "ART_N": "Bezirk", "PARENT_HIST_C": null, "PARENT_ART_C": 1.0, "VON": "1960-01-01", "BIS": "2999-12-31" }, "geometry": { "type": "Polygon", "coordinates": [ [ [ 2682584.371399998664856, 1260212.346900001168251 ], [ 2682971.603699999861419, 1260232.616599999368191 ], [ 2683055.176399998366833, 1259832.807199999690056 ], [ 2683495.210099998861551, 1259050.494800001382828 ], [ 2683258.90260000154376, 1258825.755800001090392 ], [ 2683877.558600001037121, 1258175.985000000102445 ], [ 2684116.313999999314547, 1257925.116099998354912 ], [ 2683443.895399998873472, 1256611.365099996328354 ], [ 2683709.534200001507998, 1256420.593500003218651 ], [ 2683512.987100001424551, 1255783.649800002574921 ], [ 2684181.736699998378754, 1255004.089900002116337 ], [ 2684518.109099999070168, 1254366.08839999884367 ], [ 2684249.847800001502037, 1253917.801600001752377 ], [ 2683304.39469999819994, 1254150.795999996364117 ], [ 2682877.0724, 1253985.180399999022484 ], [ 2682159.203200001269579, 1254109.324500001966953 ], [ 2681931.864699999801815, 1253950.625500001013279 ], [ 2681080.811299998313189, 1253901.690700002014637 ], [ 2680212.4054, 1254300.805799998342991 ], [ 2679002.974899999797344, 1253885.206200003623962 ], [ 2678965.717799998819828, 1253468.095499999821186 ], [ 2679340.794100001454353, 1253306.554099999368191 ], [ 2679179.856879491358995, 1252884.522229903843254 ], [ 2678414.695999998599291, 1252886.409400001168251 ], [ 2678346.247499998658895, 1252668.000900000100955 ], [ 2677259.4342, 1252507.699799999594688 ], [ 2676541.964999999850988, 1252761.835500001907349 ], [ 2676336.2195999994874, 1253303.54 ], [ 2675889.162999998778105, 1253538.040700003504753 ], [ 2674472.47690000012517, 1253925.952200002968311 ], [ 2673890.595899999141693, 1254172.412 ], [ 2673729.852699998766184, 1254211.1598 ], [ 2672792.419499999843538, 1254461.4045 ], [ 2672331.837000001221895, 1254288.400700002908707 ], [ 2671312.9901, 1254219.770900003612041 ], [ 2671156.313399999868125, 1254838.011600002646446 ], [ 2671130.209399998188019, 1255750.367499999701977 ], [ 2671517.068700000178069, 1255855.256499998504296 ], [ 2671322.862499999813735, 1256443.760300002992153 ], [ 2670907.6968, 1256915.241300001507625 ], [ 2670444.025400001555681, 1256907.343599997693673 ], [ 2669894.863499999046326, 1257683.0559 ], [ 2670060.282999999821186, 1258151.441100001102313 ], [ 2670615.407800000160933, 1258239.002700001001358 ], [ 2670445.832100000232458, 1259386.702200002968311 ], [ 2669694.260899998247623, 1259309.4111 ], [ 2669636.009100001305342, 1260388.212399996817112 ], [ 2669309.9298, 1261155.045400001108646 ], [ 2669626.826400000136346, 1261443.066100001102313 ], [ 2669256.162, 1261706.546400003135204 ], [ 2669501.392799999564886, 1262557.999399997293949 ], [ 2670438.555300001055002, 1262670.891199998557568 ], [ 2670936.506999999284744, 1263228.450599998235703 ], [ 2671001.048500001430511, 1264223.3799 ], [ 2671392.2267, 1264667.347699999809265 ], [ 2671803.9008, 1264258.682199999690056 ], [ 2671898.06810000166297, 1264323.95830000191927 ], [ 2672005.199799999594688, 1264966.1937 ], [ 2672584.159099999815226, 1265168.50280000269413 ], [ 2672557.936900001019239, 1265640.048199996352196 ], [ 2672941.559599999338388, 1266314.082900002598763 ], [ 2673329.640599999576807, 1266624.337399996817112 ], [ 2673683.6891999989748, 1266588.390199996298179 ], [ 2673459.635299999266863, 1267283.893799998098984 ], [ 2673758.331500001251698, 1268731.460900001227856 ], [ 2674276.7837999984622, 1269039.590999998152256 ], [ 2674889.98930000141263, 1268911.678400002419949 ], [ 2675306.120399999897927, 1269013.482100002467632 ], [ 2676630.607500001788139, 1269581.134900003671646 ], [ 2677167.8279, 1269557.5515 ], [ 2677488.26189999980852, 1268687.4274 ], [ 2677188.267399999778718, 1268336.274999998509884 ], [ 2676579.879199999850243, 1267998.023999996483326 ], [ 2676909.634199999272823, 1267730.949199996888638 ], [ 2677717.299499999731779, 1268198.7452 ], [ 2677839.676699999719858, 1267799.1545 ], [ 2678290.39919999986887, 1267682.483900003135204 ], [ 2679174.967099998146296, 1267214.145400002598763 ], [ 2679921.087600000202656, 1266335.641000002622604 ], [ 2679544.804399999789894, 1266104.488899998366833 ], [ 2679694.306599999777973, 1265510.787 ], [ 2679219.539599999785423, 1264957.282399997115135 ], [ 2679205.561000000219792, 1264665.536899998784065 ], [ 2679446.116099998354912, 1263880.019100002944469 ], [ 2679139.2146, 1263177.92790000140667 ], [ 2679130.563900001347065, 1262620.756700001657009 ], [ 2678545.984099999070168, 1262331.750500001013279 ], [ 2678988.068599998950958, 1261314.553800001507625 ], [ 2679645.3684, 1261582.369000002741814 ], [ 2680360.0535, 1261544.71509999781847 ], [ 2680817.814499999862164, 1261652.902699999511242 ], [ 2681220.394299998879433, 1261005.933600001037121 ], [ 2681424.562199998181313, 1261112.671899996697903 ], [ 2681709.054200001060963, 1261325.86999999708496 ], [ 2682137.858899999409914, 1261135.305200003087521 ], [ 2682088.05009999871254, 1260622.014600001275539 ], [ 2682584.371399998664856, 1260212.346900001168251 ] ] ] } },
{ "type": "Feature", "properties": { "GEBIET_HIST_C": 10076.0, "GEBIET_C": 108.0, "GEBIET_N": "Pfäffikon", "ART_C": 1.0, "ART_N": "Bezirk", "PARENT_HIST_C": null, "PARENT_ART_C": 1.0, "VON": "1960-01-01", "BIS": "2999-12-31" }, "geometry": { "type": "Polygon", "coordinates": [ [ [ 2709044.60190000012517, 1252139.764600001275539 ], [ 2709225.247599999886006, 1251723.254799999296665 ], [ 2710041.738599999807775, 1251108.135399997234344 ], [ 2710575.004799999296665, 1251203.758500002324581 ], [ 2710773.194899998605251, 1251095.679899998009205 ], [ 2711875.951400000136346, 1250910.0515 ], [ 2712282.759799998253584, 1250623.533299997448921 ], [ 2712737.278799999505281, 1250032.94820000231266 ], [ 2713474.321600001305342, 1249585.34679999970831 ], [ 2713634.931499999016523, 1249194.92790000140667 ], [ 2713390.46169999986887, 1248785.705200001597404 ], [ 2713652.300900001078844, 1248312.008299998939037 ], [ 2713436.736200001090765, 1248169.132200002903119 ], [ 2712801.977400001138449, 1247457.289599999785423 ], [ 2712700.837900001555681, 1247066.504299998516217 ], [ 2712205.205200001597404, 1246963.246200002729893 ], [ 2711903.994600001722574, 1246389.417900003492832 ], [ 2711472.432699999772012, 1246511.165399998426437 ], [ 2711248.192600000184029, 1246210.628499999642372 ], [ 2711371.179399999789894, 1245658.937399998307228 ], [ 2711017.422799999825656, 1245350.222900003194809 ], [ 2710682.514899998903275, 1245691.781599998474121 ], [ 2709597.789599999785423, 1245513.032300002872944 ], [ 2709139.5337, 1245571.5050999969244 ], [ 2708755.3915, 1245961.605599999427795 ], [ 2708279.731500000227243, 1246072.41889999806881 ], [ 2708188.7555, 1246421.806999996304512 ], [ 2707126.55689999833703, 1247005.474 ], [ 2706899.230700001120567, 1246090.289800003170967 ], [ 2705837.207400001585484, 1245264.511100001633167 ], [ 2705695.970300000160933, 1244906.896799996495247 ], [ 2704963.847699999809265, 1244918.800899997353554 ], [ 2704486.188299998175353, 1244688.067100003361702 ], [ 2705072.236900001764297, 1244117.496299996972084 ], [ 2704218.862100001424551, 1243858.9723 ], [ 2703230.134699999820441, 1244117.0050999969244 ], [ 2702582.607700001448393, 1244375.000200003385544 ], [ 2702193.265988279599696, 1244343.471406215103343 ], [ 2702193.467300001531839, 1244344.125 ], [ 2702363.979299999773502, 1244967.319200001657009 ], [ 2701534.728799998760223, 1246613.109499998390675 ], [ 2701106.386599998921156, 1246798.721500001847744 ], [ 2700504.661699999123812, 1246396.446400001645088 ], [ 2700657.2692, 1245646.695799998939037 ], [ 2700144.62790000019595, 1245267.05120000243187 ], [ 2699610.990299999713898, 1245144.8605 ], [ 2699235.635099999606609, 1245832.641000002622604 ], [ 2699237.327100001275539, 1246554.114799998700619 ], [ 2699462.998599998652935, 1246730.870099999010563 ], [ 2699304.848600000143051, 1247091.6699 ], [ 2698543.268399998545647, 1247559.623099997639656 ], [ 2698535.749099999666214, 1247944.5185 ], [ 2697591.625700000207871, 1248785.091300003230572 ], [ 2697428.510600000154227, 1248729.642199999885634 ], [ 2697202.432, 1249266.761399999260902 ], [ 2697571.9222999997437, 1250023.5511 ], [ 2695546.492199998348951, 1250647.79900000244379 ], [ 2694874.818199999630451, 1251333.631499998504296 ], [ 2694337.33219999819994, 1251425.779600002104416 ], [ 2693898.729400001466274, 1252027.199299998581409 ], [ 2693428.617199998348951, 1251989.843199997907504 ], [ 2693097.0641999989748, 1252362.691200003027916 ], [ 2692907.285699999891222, 1252252.053199999034405 ], [ 2692043.079799998551607, 1252887.491899996995926 ], [ 2692261.304399999789894, 1253181.409000001847744 ], [ 2691827.765700001269579, 1253688.576099999248981 ], [ 2692026.561900001019239, 1254576.387100003659725 ], [ 2692188.66780000180006, 1254662.227099999785423 ], [ 2692265.120099999010563, 1255530.088100001215935 ], [ 2692748.770799998193979, 1256074.793700001901016 ], [ 2693227.866799999028444, 1256216.975599996745586 ], [ 2693524.095499999821186, 1256558.057199999690056 ], [ 2693085.750399999320507, 1257380.681100003421307 ], [ 2693982.7813, 1258163.065700002014637 ], [ 2694558.194400001317263, 1258159.5467 ], [ 2695567.589000001549721, 1258114.054200001060963 ], [ 2695570.649999998509884, 1258113.67119999951683 ], [ 2695701.1028, 1257160.166599996387959 ], [ 2695542.461199998855591, 1256397.390500001609325 ], [ 2695852.605500001460314, 1256225.822800002992153 ], [ 2696756.866999998688698, 1257397.257200002903119 ], [ 2697293.575940325390548, 1257560.878235875163227 ], [ 2697712.79839999973774, 1257288.736100003123283 ], [ 2697784.522900000214577, 1257766.611599996685982 ], [ 2698217.333999998867512, 1257782.6272 ], [ 2698226.471900001168251, 1257780.8671 ], [ 2698818.527199998497963, 1257628.020599998300895 ], [ 2699206.035599999129772, 1258387.838799998164177 ], [ 2699215.181499999016523, 1258386.411899998784065 ], [ 2699741.566799998283386, 1257518.74040000140667 ], [ 2700646.064599998295307, 1256916.438100002706051 ], [ 2701783.71229999884963, 1256516.295299999415874 ], [ 2701575.666600000113249, 1255537.207999996840954 ], [ 2701718.110599998384714, 1255231.130500003695488 ], [ 2702189.3317, 1255190.117799997096881 ], [ 2702593.348700001835823, 1254473.618299998342991 ], [ 2702941.000100001692772, 1254229.3662 ], [ 2702991.8174, 1254653.394100002944469 ], [ 2703491.803299999795854, 1254847.101999998092651 ], [ 2703881.677700001746416, 1254677.677599996328354 ], [ 2704774.240299999713898, 1254771.9695999994874 ], [ 2705013.885200001299381, 1255308.299999997019768 ], [ 2705716.875199999660254, 1255356.496200002729893 ], [ 2705986.860599998384714, 1254919.814900003373623 ], [ 2705893.61259999871254, 1254432.145900003612041 ], [ 2706195.474399998784065, 1253870.449199996888638 ], [ 2706609.047699999064207, 1253886.203900001943111 ], [ 2706697.038600001484156, 1253256.648500002920628 ], [ 2707534.961599998176098, 1253362.459700003266335 ], [ 2707889.113400001078844, 1253230.079499997198582 ], [ 2707612.081399999558926, 1252681.010200001299381 ], [ 2706994.9847999997437, 1252658.160099997883663 ], [ 2706816.893499999772757, 1252268.035699999891222 ], [ 2707298.254199999850243, 1251881.8671 ], [ 2708639.609900001436472, 1251901.7148 ], [ 2709044.60190000012517, 1252139.764600001275539 ] ] ] } },
{ "type": "Feature", "properties": { "GEBIET_HIST_C": 10082.0, "GEBIET_C": 102.0, "GEBIET_N": "Andelfingen", "ART_C": 1.0, "ART_N": "Bezirk", "PARENT_HIST_C": null, "PARENT_ART_C": 1.0, "VON": "1960-01-01", "BIS": "2999-12-31" }, "geometry": { "type": "Polygon", "coordinates": [ [ [ 2687595.075800001621246, 1266097.890600003302097 ], [ 2687197.440499998629093, 1266734.481700003147125 ], [ 2687212.280099999159575, 1266946.371499999891967 ], [ 2687012.574, 1267330.048500001430511 ], [ 2686450.510299999266863, 1267812.454599998891354 ], [ 2685794.55970000103116, 1267754.155299998819828 ], [ 2685774.884799998253584, 1268233.048399999504909 ], [ 2684956.539299998432398, 1268593.6739 ], [ 2685276.648699998855591, 1269912.279700003564358 ], [ 2685751.263999998569489, 1270106.0075 ], [ 2685867.1094, 1270409.448399998247623 ], [ 2685651.9551, 1271345.326099999248981 ], [ 2686042.750700000207871, 1271976.779700003564358 ], [ 2686815.379999998956919, 1272295.04900000244379 ], [ 2687027.592000000178814, 1273447.2355 ], [ 2687581.410500001162291, 1274012.29 ], [ 2687628.613099999725819, 1274788.423199996352196 ], [ 2687164.0168999992311, 1275740.60639999806881 ], [ 2686939.275600001215935, 1277553.537799999117851 ], [ 2687356.997000001370907, 1277860.975900001823902 ], [ 2687708.2972999997437, 1278628.132299996912479 ], [ 2688242.99549999833107, 1278247.7782 ], [ 2688283.944499999284744, 1277647.550399996340275 ], [ 2687666.053800001740456, 1277421.843000002205372 ], [ 2687865.018199998885393, 1276914.477200001711026 ], [ 2688409.6316, 1276991.621499999891967 ], [ 2688980.091899998486042, 1277309.847000002861023 ], [ 2689381.91499999910593, 1278198.715000003576279 ], [ 2689414.875199999660254, 1278636.987400002777576 ], [ 2688836.2676, 1279300.953599996864796 ], [ 2688331.528599999845028, 1279653.649099998176098 ], [ 2687896.0872, 1279852.646799996495247 ], [ 2687687.6708, 1280488.535199999809265 ], [ 2688215.137299999594688, 1281520.409100003540516 ], [ 2688560.969, 1281201.592200003564358 ], [ 2689013.71510000154376, 1281306.73030000180006 ], [ 2689260.397100001573563, 1281702.006099998950958 ], [ 2689000.485199999064207, 1282881.155299998819828 ], [ 2689611.104299999773502, 1283092.970399997895584 ], [ 2690287.044599998742342, 1283335.134999997913837 ], [ 2690639.6796, 1283249.849399998784065 ], [ 2691663.555000000167638, 1282458.9245000036899 ], [ 2692412.7379, 1282306.831900000106543 ], [ 2692328.530699998140335, 1281500.333999998867512 ], [ 2692417.039799998980016, 1281186.113799996906891 ], [ 2692986.100999999791384, 1280870.945600003004074 ], [ 2693048.771899998188019, 1280199.714500002563 ], [ 2693196.270899999886751, 1279516.300999999046326 ], [ 2693764.63569999858737, 1278847.7659 ], [ 2693870.162899999879301, 1278456.9283 ], [ 2694651.278599999845028, 1278210.329000003635883 ], [ 2695452.863200001418591, 1277582.155900001525879 ], [ 2695845.943599998950958, 1277859.4142 ], [ 2696078.8136, 1277577.0203 ], [ 2697009.263300001621246, 1277705.196099996566772 ], [ 2697409.812699999660254, 1277528.170500002801418 ], [ 2698005.348600000143051, 1277668.600400000112131 ], [ 2698336.97069999948144, 1277262.705799996852875 ], [ 2698407.1371, 1277502.241999998688698 ], [ 2698930.370900001376867, 1277647.544799998402596 ], [ 2699648.435499999672174, 1278413.989500001072884 ], [ 2699924.263599999248981, 1278570.656800002092496 ], [ 2700495.856899999082088, 1278433.433300003409386 ], [ 2701176.885799999814481, 1279137.750699996948242 ], [ 2701392.0471, 1280285.613300003111362 ], [ 2702550.798599999397993, 1280281.3671 ], [ 2702643.204300001263618, 1278847.114 ], [ 2703388.738400001078844, 1278565.201999999582767 ], [ 2704255.3462, 1278287.933600001037121 ], [ 2704383.0491, 1277629.455300003290176 ], [ 2704313.6288, 1277281.385200001299381 ], [ 2703843.803299999795854, 1276317.316299997270107 ], [ 2703311.683600001037121, 1276092.9391999989748 ], [ 2703215.569699998944998, 1275566.9341000020504 ], [ 2703336.822199999820441, 1274888.505400002002716 ], [ 2702731.543299999088049, 1274566.560699999099597 ], [ 2702499.1061, 1273364.0656 ], [ 2701529.655799999833107, 1273401.635899998247623 ], [ 2701447.433800000231713, 1274078.910499997437 ], [ 2700809.409499999135733, 1274418.855400003492832 ], [ 2700061.995999999344349, 1274673.276100002229214 ], [ 2699501.679900001734495, 1274995.8636 ], [ 2699070.7195999994874, 1274844.886100001633167 ], [ 2698545.9391999989748, 1275337.434399999678135 ], [ 2698274.243099998682737, 1275322.5317 ], [ 2698280.224899999797344, 1274403.507700003683567 ], [ 2697854.160599999129772, 1274269.391199998557568 ], [ 2697807.352699998766184, 1273851.386799998581409 ], [ 2698471.751499999314547, 1272925.174999997019768 ], [ 2698499.998199999332428, 1272112.513099998235703 ], [ 2699531.394600000232458, 1272190.568000003695488 ], [ 2699500.2399, 1271853.224 ], [ 2699789.471900001168251, 1270776.004699997603893 ], [ 2699623.525699999183416, 1270225.076999999582767 ], [ 2700078.534400001168251, 1269326.96509999781847 ], [ 2699581.3682, 1269359.960799999535084 ], [ 2699231.127399999648333, 1269737.653399996459484 ], [ 2698969.0236, 1269683.296300001442432 ], [ 2698668.720400001853704, 1270157.218299999833107 ], [ 2698332.304699998348951, 1270083.8548 ], [ 2698077.947299998253584, 1269696.906900003552437 ], [ 2697488.710400000214577, 1270228.999799996614456 ], [ 2697190.405299998819828, 1269849.050399996340275 ], [ 2696672.524999998509884, 1270024.069799996912479 ], [ 2696218.474899999797344, 1270461.09009999781847 ], [ 2695610.85249999910593, 1270452.597499996423721 ], [ 2695576.55629999935627, 1270082.678499996894971 ], [ 2695118.592999998480082, 1269791.9921 ], [ 2694837.447000000160187, 1269257.845600001513958 ], [ 2694777.445999998599291, 1268745.907799996435642 ], [ 2694321.043299999088049, 1268751.339699998497963 ], [ 2694297.167199999094009, 1268262.15259999781847 ], [ 2694008.680599998682737, 1267604.513800002634525 ], [ 2693506.634799998253584, 1267374.294399999082088 ], [ 2693262.503899998962879, 1267998.927699998021126 ], [ 2692480.5293, 1268647.5436 ], [ 2691987.897100001573563, 1268656.555 ], [ 2691603.296399999409914, 1268142.818499997258186 ], [ 2691073.981899999082088, 1268212.221900001168251 ], [ 2690980.381499998271465, 1267806.448700003093109 ], [ 2691171.33600000012666, 1267207.8799 ], [ 2690910.400699999183416, 1266711.3412000015378 ], [ 2691317.319800000172108, 1266270.057899996638298 ], [ 2690595.124099999666214, 1265621.258000001311302 ], [ 2690613.3561, 1265370.754699997603893 ], [ 2690186.651099998503923, 1265116.967799998819828 ], [ 2690096.268800001591444, 1264720.2078 ], [ 2689269.250799998175353, 1265721.508599996566772 ], [ 2688376.524099998176098, 1265615.458800002932549 ], [ 2688067.557100001722574, 1265976.299800001084805 ], [ 2687595.075800001621246, 1266097.890600003302097 ] ] ] } },
{ "type": "Feature", "properties": { "GEBIET_HIST_C": 10081.0, "GEBIET_C": 103.0, "GEBIET_N": "Bülach", "ART_C": 1.0, "ART_N": "Bezirk", "PARENT_HIST_C": null, "PARENT_ART_C": 1.0, "VON": "1960-01-01", "BIS": "2999-12-31" }, "geometry": { "type": "Polygon", "coordinates": [ [ [ 2678135.7738, 1273849.015199996298179 ], [ 2678542.91440000012517, 1274187.9331 ], [ 2679296.041600000113249, 1274284.187399998307228 ], [ 2680026.821600001305342, 1274608.766000002622604 ], [ 2680420.784299999475479, 1274642.101000003516674 ], [ 2680406.545100000221282, 1275146.811499997973442 ], [ 2680933.317099999636412, 1275717.116400003433228 ], [ 2681013.9358000010252, 1276265.854400001699105 ], [ 2681328.2278, 1276522.6199000030756 ], [ 2681698.0614, 1276237.829599998891354 ], [ 2682700.565900001674891, 1276167.947300001978874 ], [ 2682688.540899998974055, 1275648.175899997353554 ], [ 2683114.170499999076128, 1275527.610000000102445 ], [ 2684135.399300001561642, 1275464.30290000140667 ], [ 2684526.069400001317263, 1274608.193199999630451 ], [ 2685005.489, 1274670.89299999922514 ], [ 2685155.660000000149012, 1274148.139899998903275 ], [ 2684795.540899998974055, 1273851.708400003612041 ], [ 2684804.2177, 1273432.658100001513958 ], [ 2683985.3484, 1272082.0053 ], [ 2683422.056499999016523, 1271928.048500001430511 ], [ 2682497.848099999129772, 1271290.042700000107288 ], [ 2682371.280099999159575, 1270736.782999999821186 ], [ 2682678.001400001347065, 1270273.775700002908707 ], [ 2682497.3207, 1269967.79280000180006 ], [ 2683348.7029, 1269861.222000002861023 ], [ 2682994.525400001555681, 1269385.142399996286258 ], [ 2683534.283399999141693, 1268721.432899996638298 ], [ 2683711.5548, 1267885.998000003397465 ], [ 2683961.318399999290705, 1267537.217299997806549 ], [ 2684291.502599999308586, 1267494.456900000106543 ], [ 2684956.539299998432398, 1268593.6739 ], [ 2685774.884799998253584, 1268233.048399999504909 ], [ 2685794.55970000103116, 1267754.155299998819828 ], [ 2686450.510299999266863, 1267812.454599998891354 ], [ 2687012.574, 1267330.048500001430511 ], [ 2687212.280099999159575, 1266946.371499999891967 ], [ 2687197.440499998629093, 1266734.481700003147125 ], [ 2687595.075800001621246, 1266097.890600003302097 ], [ 2688067.557100001722574, 1265976.299800001084805 ], [ 2688376.524099998176098, 1265615.458800002932549 ], [ 2688025.821899998933077, 1264752.773699998855591 ], [ 2687929.10020000115037, 1264251.0709 ], [ 2688397.34569999948144, 1264293.943000003695488 ], [ 2688821.2782, 1264074.059199996292591 ], [ 2689343.85149999987334, 1263699.824699997901917 ], [ 2688948.694299999624491, 1263258.033100001513958 ], [ 2689559.698899999260902, 1262884.938699997961521 ], [ 2689792.518699999898672, 1262369.123700000112876 ], [ 2690328.6488, 1262457.309399999678135 ], [ 2690262.658100001513958, 1261938.244000002741814 ], [ 2691113.599299999885261, 1261661.009000003105029 ], [ 2691393.701999999582767, 1261843.023500002920628 ], [ 2691903.301399998366833, 1261455.649599999189377 ], [ 2692077.410300001502037, 1260657.0115 ], [ 2691470.0132, 1260219.979599997401237 ], [ 2691497.1415, 1259558.662900000112131 ], [ 2691677.522999998182058, 1259247.215800002217293 ], [ 2691528.170899998396635, 1258538.016000002622604 ], [ 2692335.958999998867512, 1257857.281199999153614 ], [ 2693085.750399999320507, 1257380.681100003421307 ], [ 2693524.095499999821186, 1256558.057199999690056 ], [ 2693227.866799999028444, 1256216.975599996745586 ], [ 2692748.770799998193979, 1256074.793700001901016 ], [ 2692265.120099999010563, 1255530.088100001215935 ], [ 2692188.66780000180006, 1254662.227099999785423 ], [ 2692026.561900001019239, 1254576.387100003659725 ], [ 2691827.765700001269579, 1253688.576099999248981 ], [ 2692261.304399999789894, 1253181.409000001847744 ], [ 2692043.079799998551607, 1252887.491899996995926 ], [ 2691597.71059999987483, 1252966.1202 ], [ 2691165.4655, 1253347.92400000244379 ], [ 2690122.592300001531839, 1253611.604400001699105 ], [ 2689754.643300000112504, 1253908.455700002610683 ], [ 2689328.892299998551607, 1253224.4886 ], [ 2689440.621199999004602, 1252651.240299999713898 ], [ 2689844.817899998277426, 1251543.9217 ], [ 2689439.699299998581409, 1251334.1963 ], [ 2689082.538899999111891, 1251392.480800002813339 ], [ 2688247.0984, 1251313.658699996769428 ], [ 2687833.282800000160933, 1250965.752300001680851 ], [ 2687446.750100001692772, 1251220.777900002896786 ], [ 2686755.615600001066923, 1251428.8473 ], [ 2686717.3202, 1251441.1343 ], [ 2685609.991, 1251802.834700003266335 ], [ 2685593.260000001639128, 1251822.130800001090392 ], [ 2685650.279199998825788, 1252756.041900001699105 ], [ 2684867.9512, 1252261.288500003516674 ], [ 2684836.674400001764297, 1252342.992399998009205 ], [ 2684178.649300001561642, 1252819.411200001835823 ], [ 2684402.419100001454353, 1253189.021099999547005 ], [ 2684249.847800001502037, 1253917.801600001752377 ], [ 2684518.109099999070168, 1254366.08839999884367 ], [ 2684181.736699998378754, 1255004.089900002116337 ], [ 2683512.987100001424551, 1255783.649800002574921 ], [ 2683709.534200001507998, 1256420.593500003218651 ], [ 2683443.895399998873472, 1256611.365099996328354 ], [ 2684116.313999999314547, 1257925.116099998354912 ], [ 2683877.558600001037121, 1258175.985000000102445 ], [ 2683258.90260000154376, 1258825.755800001090392 ], [ 2683495.210099998861551, 1259050.494800001382828 ], [ 2683055.176399998366833, 1259832.807199999690056 ], [ 2682971.603699999861419, 1260232.616599999368191 ], [ 2682584.371399998664856, 1260212.346900001168251 ], [ 2682088.05009999871254, 1260622.014600001275539 ], [ 2682137.858899999409914, 1261135.305200003087521 ], [ 2681709.054200001060963, 1261325.86999999708496 ], [ 2681424.562199998181313, 1261112.671899996697903 ], [ 2681220.394299998879433, 1261005.933600001037121 ], [ 2680817.814499999862164, 1261652.902699999511242 ], [ 2680360.0535, 1261544.71509999781847 ], [ 2679645.3684, 1261582.369000002741814 ], [ 2678988.068599998950958, 1261314.553800001507625 ], [ 2678545.984099999070168, 1262331.750500001013279 ], [ 2679130.563900001347065, 1262620.756700001657009 ], [ 2679139.2146, 1263177.92790000140667 ], [ 2679446.116099998354912, 1263880.019100002944469 ], [ 2679205.561000000219792, 1264665.536899998784065 ], [ 2679219.539599999785423, 1264957.282399997115135 ], [ 2679694.306599999777973, 1265510.787 ], [ 2679544.804399999789894, 1266104.488899998366833 ], [ 2679921.087600000202656, 1266335.641000002622604 ], [ 2679174.967099998146296, 1267214.145400002598763 ], [ 2678290.39919999986887, 1267682.483900003135204 ], [ 2677839.676699999719858, 1267799.1545 ], [ 2677717.299499999731779, 1268198.7452 ], [ 2676909.634199999272823, 1267730.949199996888638 ], [ 2676579.879199999850243, 1267998.023999996483326 ], [ 2677188.267399999778718, 1268336.274999998509884 ], [ 2677488.26189999980852, 1268687.4274 ], [ 2677167.8279, 1269557.5515 ], [ 2678026.326699998229742, 1270153.2421 ], [ 2678636.739799998700619, 1270119.662600003182888 ], [ 2678898.909299999475479, 1270217.396200001239777 ], [ 2679450.00959999859333, 1270580.681500002741814 ], [ 2678881.3585, 1271274.371799997985363 ], [ 2678415.203499998897314, 1271021.664599999785423 ], [ 2677350.956399999558926, 1270901.115099996328354 ], [ 2677191.500599998980761, 1271315.748800002038479 ], [ 2676868.058800000231713, 1271353.507799997925758 ], [ 2676914.9646, 1271831.263800002634525 ], [ 2676592.517, 1272351.339100003242493 ], [ 2676559.53660000115633, 1272899.972199998795986 ], [ 2677082.094099998474121, 1272901.031499996781349 ], [ 2677448.672499999403954, 1273083.1567 ], [ 2678135.7738, 1273849.015199996298179 ] ] ] } },
{ "type": "Feature", "properties": { "GEBIET_HIST_C": 10074.0, "GEBIET_C": 110.0, "GEBIET_N": "Winterthur", "ART_C": 1.0, "ART_N": "Bezirk", "PARENT_HIST_C": null, "PARENT_ART_C": 1.0, "VON": "1960-01-01", "BIS": "2999-12-31" }, "geometry": { "type": "Polygon", "coordinates": [ [ [ 2711078.447799999266863, 1255020.355499997502193 ], [ 2711873.127099998295307, 1254843.373499996960163 ], [ 2712586.969799999147654, 1254904.590999998152256 ], [ 2712512.782200001180172, 1254489.7408 ], [ 2711910.765500001609325, 1254634.656199999153614 ], [ 2711273.989, 1254460.237899996340275 ], [ 2711357.723799999803305, 1254038.367299996316433 ], [ 2711105.235299999825656, 1253571.737999998033047 ], [ 2711319.009699999820441, 1252964.7126 ], [ 2711243.522399999201298, 1252381.246799997985363 ], [ 2710646.027699999511242, 1251478.20440000295639 ], [ 2710575.004799999296665, 1251203.758500002324581 ], [ 2710041.738599999807775, 1251108.135399997234344 ], [ 2709225.247599999886006, 1251723.254799999296665 ], [ 2709044.60190000012517, 1252139.764600001275539 ], [ 2708639.609900001436472, 1251901.7148 ], [ 2707298.254199999850243, 1251881.8671 ], [ 2706816.893499999772757, 1252268.035699999891222 ], [ 2706994.9847999997437, 1252658.160099997883663 ], [ 2707612.081399999558926, 1252681.010200001299381 ], [ 2707889.113400001078844, 1253230.079499997198582 ], [ 2707534.961599998176098, 1253362.459700003266335 ], [ 2706697.038600001484156, 1253256.648500002920628 ], [ 2706609.047699999064207, 1253886.203900001943111 ], [ 2706195.474399998784065, 1253870.449199996888638 ], [ 2705893.61259999871254, 1254432.145900003612041 ], [ 2705986.860599998384714, 1254919.814900003373623 ], [ 2705716.875199999660254, 1255356.496200002729893 ], [ 2705013.885200001299381, 1255308.299999997019768 ], [ 2704774.240299999713898, 1254771.9695999994874 ], [ 2703881.677700001746416, 1254677.677599996328354 ], [ 2703491.803299999795854, 1254847.101999998092651 ], [ 2702991.8174, 1254653.394100002944469 ], [ 2702941.000100001692772, 1254229.3662 ], [ 2702593.348700001835823, 1254473.618299998342991 ], [ 2702189.3317, 1255190.117799997096881 ], [ 2701718.110599998384714, 1255231.130500003695488 ], [ 2701575.666600000113249, 1255537.207999996840954 ], [ 2701783.71229999884963, 1256516.295299999415874 ], [ 2700646.064599998295307, 1256916.438100002706051 ], [ 2699741.566799998283386, 1257518.74040000140667 ], [ 2699215.181499999016523, 1258386.411899998784065 ], [ 2699206.159214953891933, 1258387.819514178438112 ], [ 2699206.035599999129772, 1258387.838799998164177 ], [ 2698818.527199998497963, 1257628.020599998300895 ], [ 2698226.471900001168251, 1257780.8671 ], [ 2698225.81434918101877, 1257780.993754395516589 ], [ 2698217.333999998867512, 1257782.6272 ], [ 2697784.522900000214577, 1257766.611599996685982 ], [ 2697712.79839999973774, 1257288.736100003123283 ], [ 2697293.575940325390548, 1257560.878235875163227 ], [ 2696756.866999998688698, 1257397.257200002903119 ], [ 2695852.605500001460314, 1256225.822800002992153 ], [ 2695542.461199998855591, 1256397.390500001609325 ], [ 2695701.1028, 1257160.166599996387959 ], [ 2695570.649999998509884, 1258113.67119999951683 ], [ 2695570.304810816887766, 1258113.714390936307609 ], [ 2695567.589000001549721, 1258114.054200001060963 ], [ 2694558.194400001317263, 1258159.5467 ], [ 2693982.7813, 1258163.065700002014637 ], [ 2693085.750399999320507, 1257380.681100003421307 ], [ 2692335.958999998867512, 1257857.281199999153614 ], [ 2691528.170899998396635, 1258538.016000002622604 ], [ 2691677.522999998182058, 1259247.215800002217293 ], [ 2691497.1415, 1259558.662900000112131 ], [ 2691470.0132, 1260219.979599997401237 ], [ 2692077.410300001502037, 1260657.0115 ], [ 2691903.301399998366833, 1261455.649599999189377 ], [ 2691393.701999999582767, 1261843.023500002920628 ], [ 2691113.599299999885261, 1261661.009000003105029 ], [ 2690262.658100001513958, 1261938.244000002741814 ], [ 2690328.6488, 1262457.309399999678135 ], [ 2689792.518699999898672, 1262369.123700000112876 ], [ 2689559.698899999260902, 1262884.938699997961521 ], [ 2688948.694299999624491, 1263258.033100001513958 ], [ 2689343.85149999987334, 1263699.824699997901917 ], [ 2688821.2782, 1264074.059199996292591 ], [ 2688397.34569999948144, 1264293.943000003695488 ], [ 2687929.10020000115037, 1264251.0709 ], [ 2688025.821899998933077, 1264752.773699998855591 ], [ 2688376.524099998176098, 1265615.458800002932549 ], [ 2689269.250799998175353, 1265721.508599996566772 ], [ 2690096.268800001591444, 1264720.2078 ], [ 2690186.651099998503923, 1265116.967799998819828 ], [ 2690613.3561, 1265370.754699997603893 ], [ 2690595.124099999666214, 1265621.258000001311302 ], [ 2691317.319800000172108, 1266270.057899996638298 ], [ 2690910.400699999183416, 1266711.3412000015378 ], [ 2691171.33600000012666, 1267207.8799 ], [ 2690980.381499998271465, 1267806.448700003093109 ], [ 2691073.981899999082088, 1268212.221900001168251 ], [ 2691603.296399999409914, 1268142.818499997258186 ], [ 2691987.897100001573563, 1268656.555 ], [ 2692480.5293, 1268647.5436 ], [ 2693262.503899998962879, 1267998.927699998021126 ], [ 2693506.634799998253584, 1267374.294399999082088 ], [ 2694008.680599998682737, 1267604.513800002634525 ], [ 2694297.167199999094009, 1268262.15259999781847 ], [ 2694321.043299999088049, 1268751.339699998497963 ], [ 2694777.445999998599291, 1268745.907799996435642 ], [ 2694837.447000000160187, 1269257.845600001513958 ], [ 2695118.592999998480082, 1269791.9921 ], [ 2695576.55629999935627, 1270082.678499996894971 ], [ 2695610.85249999910593, 1270452.597499996423721 ], [ 2696218.474899999797344, 1270461.09009999781847 ], [ 2696672.524999998509884, 1270024.069799996912479 ], [ 2697190.405299998819828, 1269849.050399996340275 ], [ 2697488.710400000214577, 1270228.999799996614456 ], [ 2698077.947299998253584, 1269696.906900003552437 ], [ 2698332.304699998348951, 1270083.8548 ], [ 2698668.720400001853704, 1270157.218299999833107 ], [ 2698969.0236, 1269683.296300001442432 ], [ 2699231.127399999648333, 1269737.653399996459484 ], [ 2699581.3682, 1269359.960799999535084 ], [ 2700078.534400001168251, 1269326.96509999781847 ], [ 2699623.525699999183416, 1270225.076999999582767 ], [ 2699789.471900001168251, 1270776.004699997603893 ], [ 2699500.2399, 1271853.224 ], [ 2699531.394600000232458, 1272190.568000003695488 ], [ 2699917.587799999862909, 1272127.255800001090392 ], [ 2702866.18470000103116, 1271168.465199999511242 ], [ 2702787.461599998176098, 1270261.0872 ], [ 2703204.821400001645088, 1269818.7729 ], [ 2703685.07149999961257, 1269738.621299996972084 ], [ 2704786.936799999326468, 1270113.175999999046326 ], [ 2705354.758400000166148, 1269882.535499997437 ], [ 2705400.042399998754263, 1269240.727200001711026 ], [ 2705782.530499998480082, 1269007.39190000295639 ], [ 2706280.09910000115633, 1269061.382700003683567 ], [ 2706300.311099998652935, 1268751.641599998110905 ], [ 2705662.306599999777973, 1268674.8143 ], [ 2705310.800599999725819, 1268333.462399996817112 ], [ 2704678.42339999973774, 1268358.847599997883663 ], [ 2704720.286799999885261, 1267857.699600003659725 ], [ 2705081.669199999421835, 1266733.226400002837181 ], [ 2705501.883099999278784, 1266342.592500001192093 ], [ 2705586.460099998861551, 1265601.327100001275539 ], [ 2706707.911499999463558, 1265374.907999999821186 ], [ 2707733.0439000017941, 1265383.001000002026558 ], [ 2708088.254199999850243, 1265281.529200002551079 ], [ 2708546.211199998855591, 1265095.591700002551079 ], [ 2708797.2969, 1265299.976099997758865 ], [ 2709928.309500001370907, 1264717.586599998176098 ], [ 2709713.840599998831749, 1264186.309500001370907 ], [ 2709816.462900001555681, 1263972.2820999994874 ], [ 2709875.765000000130385, 1262600.2368 ], [ 2709724.860399998724461, 1262349.990099996328354 ], [ 2709552.488400001078844, 1262105.23030000180006 ], [ 2709587.875999998301268, 1260753.276100002229214 ], [ 2709962.25400000018999, 1260393.439900003373623 ], [ 2709035.277300000190735, 1259998.410199999809265 ], [ 2708929.964899998158216, 1258710.074199996888638 ], [ 2709459.653400000184774, 1258623.3174 ], [ 2709719.46169999986887, 1258002.9855 ], [ 2709871.040600001811981, 1257529.402800001204014 ], [ 2710225.707600001245737, 1257005.440700002014637 ], [ 2710720.405799999833107, 1256602.714100003242493 ], [ 2710891.167399998754263, 1256254.128899998962879 ], [ 2710421.18129999935627, 1255857.429700002074242 ], [ 2710746.505699999630451, 1255257.1488 ], [ 2711078.447799999266863, 1255020.355499997502193 ] ], [ [ 2699762.683200001716614, 1257572.730700001120567 ], [ 2699780.859000001102686, 1257559.841399997705594 ], [ 2699762.896599655970931, 1257572.57936844159849 ], [ 2699762.683200001716614, 1257572.730700001120567 ] ] ] } },
{ "type": "Feature", "properties": { "GEBIET_HIST_C": 10119.0, "GEBIET_C": 111.0, "GEBIET_N": "Zürich", "ART_C": 1.0, "ART_N": "Bezirk", "PARENT_HIST_C": null, "PARENT_ART_C": 1.0, "VON": "1986-01-01", "BIS": "1989-12-31" }, "geometry": { "type": "Polygon", "coordinates": [ [ [ 2678666.099399998784065, 1245395.832500003278255 ], [ 2678289.014499999582767, 1245278.283399999141693 ], [ 2677856.89469999819994, 1244913.021899998188019 ], [ 2677873.421999998390675, 1244659.8882 ], [ 2677016.1206, 1244847.2408 ], [ 2676819.30009999871254, 1244261.535899996757507 ], [ 2677134.461500000208616, 1243992.735299997031689 ], [ 2677236.415500000119209, 1243320.50450000166893 ], [ 2676835.221700001507998, 1243159.071500003105029 ], [ 2676751.022399999201298, 1243150.7826 ], [ 2676435.367899999022484, 1242672.079300001263618 ], [ 2675302.045200001448393, 1242083.400600001215935 ], [ 2674896.08669999986887, 1242305.0533 ], [ 2674108.560199998319149, 1242001.25500000291504 ], [ 2673610.716699998825788, 1242263.985200002789497 ], [ 2673926.666000001132488, 1243008.876500003039837 ], [ 2673896.09910000115633, 1243378.156900003552437 ], [ 2673204.476599998772144, 1243864.72070000320673 ], [ 2672937.183899998664856, 1244416.289700001711026 ], [ 2673195.250399999320507, 1245408.907899997895584 ], [ 2672993.874000001698732, 1246366.332099996507168 ], [ 2673236.83219999819994, 1246652.981499999761581 ], [ 2673144.377399999648333, 1247049.497000001370907 ], [ 2672652.7648, 1247186.992600001394749 ], [ 2672576.044799998402596, 1247549.09179999679327 ], [ 2672217.937600001692772, 1248256.812700003385544 ], [ 2672201.6886, 1249254.476400002837181 ], [ 2672305.013799998909235, 1249663.132700003683567 ], [ 2671966.421699999831617, 1249883.093400001525879 ], [ 2671256.345899999141693, 1249825.8507999998983 ], [ 2671054.579799998551607, 1250294.0986 ], [ 2670036.868599999696016, 1250191.583400003612041 ], [ 2669989.857999999076128, 1250598.072300001978874 ], [ 2670767.146600001025945, 1250864.13740000128746 ], [ 2671002.8412000015378, 1250599.906099997693673 ], [ 2671402.332100000232458, 1251030.321000002324581 ], [ 2671139.602899998426437, 1251359.503899998962879 ], [ 2671956.594999998807907, 1252778.884000003105029 ], [ 2671600.739999998360872, 1253450.045299999415874 ], [ 2670720.356999999843538, 1253654.847900003194809 ], [ 2670798.471999999135733, 1254093.3746 ], [ 2671312.9901, 1254219.770900003612041 ], [ 2672331.837000001221895, 1254288.400700002908707 ], [ 2672792.419499999843538, 1254461.4045 ], [ 2673729.852699998766184, 1254211.1598 ], [ 2673890.595899999141693, 1254172.412 ], [ 2674472.47690000012517, 1253925.952200002968311 ], [ 2675889.162999998778105, 1253538.040700003504753 ], [ 2676336.2195999994874, 1253303.54 ], [ 2676541.964999999850988, 1252761.835500001907349 ], [ 2677259.4342, 1252507.699799999594688 ], [ 2678346.247499998658895, 1252668.000900000100955 ], [ 2678414.695999998599291, 1252886.409400001168251 ], [ 2679179.856879491358995, 1252884.522229903843254 ], [ 2679340.794100001454353, 1253306.554099999368191 ], [ 2678965.717799998819828, 1253468.095499999821186 ], [ 2679002.974899999797344, 1253885.206200003623962 ], [ 2680212.4054, 1254300.805799998342991 ], [ 2681080.811299998313189, 1253901.690700002014637 ], [ 2681931.864699999801815, 1253950.625500001013279 ], [ 2682159.203200001269579, 1254109.324500001966953 ], [ 2682877.0724, 1253985.180399999022484 ], [ 2683304.39469999819994, 1254150.795999996364117 ], [ 2684249.847800001502037, 1253917.801600001752377 ], [ 2684402.419100001454353, 1253189.021099999547005 ], [ 2684178.649300001561642, 1252819.411200001835823 ], [ 2684836.674400001764297, 1252342.992399998009205 ], [ 2684867.74336824240163, 1252261.831415686290711 ], [ 2684867.9512, 1252261.288500003516674 ], [ 2685650.279199998825788, 1252756.041900001699105 ], [ 2685593.260000001639128, 1251822.130800001090392 ], [ 2685609.087613661307842, 1251803.876588302431628 ], [ 2685609.991, 1251802.834700003266335 ], [ 2686717.3202, 1251441.1343 ], [ 2686729.140140529256314, 1251437.341896493686363 ], [ 2686755.615600001066923, 1251428.8473 ], [ 2687446.750100001692772, 1251220.777900002896786 ], [ 2687195.401200000196695, 1250796.748800002038479 ], [ 2687390.888799998909235, 1250159.923 ], [ 2687031.428399998694658, 1250214.74719999730587 ], [ 2686510.866399999707937, 1249650.881700001657009 ], [ 2686417.046, 1249238.353100001811981 ], [ 2687101.82490000128746, 1249016.424199998378754 ], [ 2686950.0055, 1248745.423100002110004 ], [ 2687494.291900001466274, 1248163.190499998629093 ], [ 2687486.395899999886751, 1247873.232100002467632 ], [ 2687861.985599998384714, 1247444.117600001394749 ], [ 2687854.762182340491563, 1247437.550594946602359 ], [ 2687854.709499999880791, 1247437.502700001001358 ], [ 2687857.070300001651049, 1247419.921899996697903 ], [ 2687865.272100001573563, 1247410.13180000311695 ], [ 2687959.717500001192093, 1247372.434399999678135 ], [ 2688181.906100001186132, 1247083.328299999237061 ], [ 2688340.921300001442432, 1246963.7117000001017 ], [ 2689055.285399999469519, 1246888.074299998581409 ], [ 2688843.724399998784065, 1246293.7562 ], [ 2689373.031899999827147, 1246146.109099999070168 ], [ 2689602.834199998527765, 1245495.473399996757507 ], [ 2688127.644099999219179, 1245403.137699998915195 ], [ 2687880.0337, 1245079.219400003552437 ], [ 2686711.404599998146296, 1245303.65259999781847 ], [ 2686709.951537416316569, 1245300.363087234087288 ], [ 2686709.741899999789894, 1245299.88849999755621 ], [ 2686130.0381, 1244833.497100003063679 ], [ 2685248.611999999731779, 1244642.664099998772144 ], [ 2685119.358600001782179, 1244564.925999999046326 ], [ 2685063.5907, 1244522.879299998516217 ], [ 2684633.334499999880791, 1245141.949 ], [ 2684027.123500000219792, 1245254.719999998807907 ], [ 2683631.187899999320507, 1246502.967 ], [ 2683626.2139105591923, 1246515.503483591601253 ], [ 2683625.9899, 1246516.064900003373623 ], [ 2683492.402199998497963, 1246815.029799997806549 ], [ 2683492.108166068326682, 1246814.951360506936908 ], [ 2683468.771000001579523, 1246808.725699998438358 ], [ 2683374.978100001811981, 1246783.4695999994874 ], [ 2683374.772268457338214, 1246783.230394870974123 ], [ 2683370.901999998837709, 1246778.732600003713742 ], [ 2683180.180300001055002, 1246682.5317 ], [ 2683180.143267807550728, 1246682.383373193675652 ], [ 2683179.80629999935627, 1246681.033699996769428 ], [ 2682900.772999998182058, 1246197.523299999535084 ], [ 2682902.238699998706579, 1245162.427500002086163 ], [ 2682896.765299998223782, 1245101.618500001495704 ], [ 2682839.303299999795854, 1244783.850900001823902 ], [ 2683060.174899999052286, 1243935.324199996888638 ], [ 2683464.564300000201911, 1243316.831299998098984 ], [ 2683455.987199999392033, 1243309.8825 ], [ 2682962.842399999499321, 1242725.415499999886379 ], [ 2682638.82549999980256, 1242650.997500002384186 ], [ 2682027.586199998855591, 1242043.8891 ], [ 2681741.948800001293421, 1242022.026100002229214 ], [ 2681741.090055224951357, 1242022.002776930341497 ], [ 2681725.932300001382828, 1242021.591099999845028 ], [ 2680833.366899999789894, 1241789.169600002467632 ], [ 2680480.664500001817942, 1241583.6523 ], [ 2680282.798899999819696, 1241865.962999999523163 ], [ 2680368.76969999819994, 1243377.26129999756813 ], [ 2679985.2947, 1244043.768799998098984 ], [ 2680063.667899999767542, 1244294.300700001418591 ], [ 2679208.535999998450279, 1245176.427299998700619 ], [ 2678666.099399998784065, 1245395.832500003278255 ] ] ] } },
{ "type": "Feature", "properties": { "GEBIET_HIST_C": 1.0, "GEBIET_C": 0.0, "GEBIET_N": "Zürichsee", "ART_C": 3.0, "ART_N": "See", "PARENT_HIST_C": null, "PARENT_ART_C": null, "VON": "1960-01-01", "BIS": "2999-12-31" }, "geometry": { "type": "MultiPolygon", "coordinates": [ [ [ [ 2683625.9899, 1246516.064900003373623 ], [ 2683492.402199998497963, 1246815.029799997806549 ], [ 2683468.771000001579523, 1246808.725699998438358 ], [ 2683374.978100001811981, 1246783.4695999994874 ], [ 2683370.901999998837709, 1246778.732600003713742 ], [ 2683180.180300001055002, 1246682.5317 ], [ 2683179.80629999935627, 1246681.033699996769428 ], [ 2682900.772999998182058, 1246197.523299999535084 ], [ 2682902.238699998706579, 1245162.427500002086163 ], [ 2682896.765299998223782, 1245101.618500001495704 ], [ 2682839.303299999795854, 1244783.850900001823902 ], [ 2683060.174899999052286, 1243935.324199996888638 ], [ 2683464.564300000201911, 1243316.831299998098984 ], [ 2683455.987199999392033, 1243309.8825 ], [ 2683658.815000001341105, 1242996.002499997615814 ], [ 2684235.8246, 1241574.236299999058247 ], [ 2684494.805100001394749, 1241143.285300001502037 ], [ 2684726.38399999961257, 1240006.8834 ], [ 2684913.002300001680851, 1239649.979400001699105 ], [ 2685836.918000001460314, 1238399.216300003230572 ], [ 2686328.911400001496077, 1237455.728100001811981 ], [ 2686557.3449, 1236620.977799996733665 ], [ 2686923.175799999386072, 1236105.009900003671646 ], [ 2687484.630199998617172, 1235277.789700001711026 ], [ 2688957.876200001686811, 1234534.8103 ], [ 2689284.210799999535084, 1234486.847099997103214 ], [ 2690001.255199998617172, 1234063.750200003385544 ], [ 2690575.1831, 1233860.817100003361702 ], [ 2691146.739799998700619, 1234148.215599998831749 ], [ 2691854.32439999980852, 1233807.270900003612041 ], [ 2692510.737799998372793, 1232694.664700001711026 ], [ 2693185.109000001102686, 1232090.254 ], [ 2693620.833999998867512, 1231838.25789999961853 ], [ 2693754.711899999529123, 1231499.457599997520447 ], [ 2694826.8827, 1230665.129 ], [ 2695595.9912, 1230267.6570999994874 ], [ 2695987.964299999177456, 1229571.968900002306327 ], [ 2696445.818399999290705, 1229174.368299998342991 ], [ 2696570.938799999654293, 1228794.662799999117851 ], [ 2697274.8843, 1228533.7148 ], [ 2697811.314800001680851, 1228794.188000001013279 ], [ 2698241.755100000184029, 1229420.215300001204014 ], [ 2698788.156599998474121, 1229195.216300003230572 ], [ 2699745.565099999308586, 1229408.048399999504909 ], [ 2700995.084300000220537, 1229145.6061 ], [ 2701452.915399998426437, 1229362.506399996578693 ], [ 2702409.280499998480082, 1229262.6928 ], [ 2702609.066199999302626, 1230009.67059999704361 ], [ 2703004.298599999397993, 1229763.6537000015378 ], [ 2703026.39809999987483, 1229133.355800002813339 ], [ 2703409.152199998497963, 1228838.984499998390675 ], [ 2704275.6858000010252, 1228652.32940000295639 ], [ 2704316.688299998175353, 1228320.794200003147125 ], [ 2705036.567200001329184, 1227969.492799997096881 ], [ 2705574.9899, 1228081.271300002932549 ], [ 2706222.69040000019595, 1227672.442299999296665 ], [ 2706916.0236, 1227819.249799996614456 ], [ 2707125.43299999833107, 1228416.308200001483783 ], [ 2707014.937299999874085, 1228924.190499998629093 ], [ 2707917.214200001209974, 1229237.171400003135204 ], [ 2709247.897399999201298, 1229541.965199999511242 ], [ 2710336.362199999392033, 1229203.821500003105029 ], [ 2712236.506, 1229762.875200003385544 ], [ 2713742.160199999809265, 1230425.646499998867512 ], [ 2713770.555799998342991, 1231128.632700003683567 ], [ 2714169.05290000140667, 1231527.022000000113621 ], [ 2713104.6193, 1231627.603299997514114 ], [ 2712076.35249999910593, 1231608.876900002360344 ], [ 2711836.282999999821186, 1231307.814900003373623 ], [ 2711312.793699998408556, 1231263.46679999679327 ], [ 2709340.002300001680851, 1230474.021499998867512 ], [ 2708137.728999998420477, 1230692.190200001001358 ], [ 2707557.294000000227243, 1231121.656400002306327 ], [ 2706849.615799999795854, 1231049.773400001227856 ], [ 2706726.5126, 1230481.079800002509728 ], [ 2705478.207499999552965, 1230493.135099999606609 ], [ 2704992.505399998277426, 1231048.8583 ], [ 2704269.068399999290705, 1231083.659400001168251 ], [ 2704110.729100000113249, 1231501.29169999808073 ], [ 2704455.533900000154972, 1231864.490099996328354 ], [ 2704343.036499999463558, 1232623.813699997961521 ], [ 2702755.44939999980852, 1232901.959200002485886 ], [ 2702129.784099999815226, 1232359.892800003290176 ], [ 2701716.491500001400709, 1232457.169399999082088 ], [ 2701141.746199999004602, 1232371.2034 ], [ 2699826.651, 1232278.94820000231266 ], [ 2698763.7769, 1232334.972000002861023 ], [ 2698313.237199999392033, 1232216.570100001990795 ], [ 2697472.782699998468161, 1232666.290600001811981 ], [ 2696672.584699999541044, 1232858.760799996554852 ], [ 2696052.227200001478195, 1233556.084600001573563 ], [ 2695523.711399998515844, 1233718.606700003147125 ], [ 2694499.781100001186132, 1234548.843699999153614 ], [ 2693827.751400001347065, 1234862.747699998319149 ], [ 2692998.611299999058247, 1235207.274499997496605 ], [ 2692464.185499999672174, 1235556.163699999684468 ], [ 2691799.2023, 1235570.211599998176098 ], [ 2691419.447999998927116, 1235888.500699996948242 ], [ 2690790.964999999850988, 1235918.876900002360344 ], [ 2690591.136999998241663, 1236200.464299999177456 ], [ 2690043.198800001293421, 1236282.313100002706051 ], [ 2689002.671699999831617, 1237023.634000003105029 ], [ 2688640.314800001680851, 1237542.47749999910593 ], [ 2687716.0154, 1238756.904399998486042 ], [ 2687523.971099998801947, 1239269.107299998402596 ], [ 2687029.835499998182058, 1239734.713799998164177 ], [ 2686804.94649999961257, 1240213.631300002336502 ], [ 2686463.863099999725819, 1240622.993900001049042 ], [ 2686104.105200000107288, 1241324.880199998617172 ], [ 2686169.2122, 1241627.88000000291504 ], [ 2685767.489999998360872, 1242464.941600002348423 ], [ 2685636.175799999386072, 1242969.726599998772144 ], [ 2685063.5907, 1244522.879299998516217 ], [ 2684633.334499999880791, 1245141.949 ], [ 2684027.123500000219792, 1245254.719999998807907 ], [ 2683631.187899999320507, 1246502.967 ], [ 2683625.9899, 1246516.064900003373623 ] ] ] ] } },
{ "type": "Feature", "properties": { "GEBIET_HIST_C": 2.0, "GEBIET_C": 0.0, "GEBIET_N": "Pfäffikersee", "ART_C": 3.0, "ART_N": "See", "PARENT_HIST_C": null, "PARENT_ART_C": null, "VON": "1960-01-01", "BIS": "2999-12-31" }, "geometry": { "type": "MultiPolygon", "coordinates": [ [ [ [ 2702193.467300001531839, 1244344.125 ], [ 2702363.979299999773502, 1244967.319200001657009 ], [ 2701534.728799998760223, 1246613.109499998390675 ], [ 2701106.386599998921156, 1246798.721500001847744 ], [ 2700504.661699999123812, 1246396.446400001645088 ], [ 2700657.2692, 1245646.695799998939037 ], [ 2700925.403999999165535, 1245179.283399999141693 ], [ 2701000.078499998897314, 1244295.510099999606609 ], [ 2701241.639600001275539, 1244167.471900001168251 ], [ 2702193.234199999831617, 1244343.36819999688305 ], [ 2702193.467300001531839, 1244344.125 ] ] ] ] } },
{ "type": "Feature", "properties": { "GEBIET_HIST_C": 3.0, "GEBIET_C": 0.0, "GEBIET_N": "Greifensee", "ART_C": 3.0, "ART_N": "See", "PARENT_HIST_C": null, "PARENT_ART_C": null, "VON": "1960-01-01", "BIS": "2999-12-31" }, "geometry": { "type": "MultiPolygon", "coordinates": [ [ [ [ 2692695.807399999350309, 1247523.7212999984622 ], [ 2692309.092999998480082, 1247708.28660000115633 ], [ 2691921.986900001764297, 1247591.0119 ], [ 2691696.657699998468161, 1246482.271899998188019 ], [ 2692043.321699999272823, 1245938.041500001912937 ], [ 2692991.884399998933077, 1244736.494599997997284 ], [ 2693471.622499998658895, 1244534.490699999034405 ], [ 2693904.170899998396635, 1243864.970200002193451 ], [ 2694546.4868, 1242590.711099997162819 ], [ 2694617.164799998980016, 1242053.054099999368191 ], [ 2695145.0707, 1241956.749300003051758 ], [ 2695372.8092, 1242438.440999999642372 ], [ 2695780.744899999350309, 1242522.857699997490272 ], [ 2695930.953600000124425, 1243078.4274 ], [ 2695796.768699999898672, 1243355.600000001490116 ], [ 2694823.0537, 1243918.648299999535084 ], [ 2694543.721599999815226, 1244564.873199999099597 ], [ 2694464.444499999284744, 1245435.377499997615814 ], [ 2693793.188200000207871, 1246505.285999998450279 ], [ 2693432.75290000019595, 1246594.119800001382828 ], [ 2692695.807399999350309, 1247523.7212999984622 ] ] ] ] } }
]
}
